{
  "type": "FeatureCollection",
  "generator": "overpass-turbo",
  "copyright": "The data included in this document is from www.openstreetmap.org. The data is made available under ODbL.",
  "timestamp": "2025-12-03T07:42:50Z",
  "features": [
    {
      "type": "Feature",
      "properties": {
        "@id": "node/415826789",
        "amenity": "cafe",
        "name": "Cafe Glass"
      },
      "geometry": {
        "type": "Point",
        "coordinates": [
          112.7646912,
          -7.2661303
        ]
      },
      "id": "node/415826789"
    },
    {
      "type": "Feature",
      "properties": {
        "@id": "node/1340818669",
        "addr:housename": "Bon Cafe PTC",
        "alt_name": "Bon Cafe PTC",
        "amenity": "cafe",
        "cuisine": "steak_house",
        "name": "Bon Cafe",
        "opening_hours": "Mo-Su 09:00-22:30",
        "website": "https://www.boncafellas.com/"
      },
      "geometry": {
        "type": "Point",
        "coordinates": [
          112.6760649,
          -7.2957078
        ]
      },
      "id": "node/1340818669"
    },
    {
      "type": "Feature",
      "properties": {
        "@id": "node/2633385707",
        "addr:city": "surabaya",
        "addr:housename": "jl. bandarejo 3 no.2",
        "addr:postcode": "60198",
        "amenity": "cafe",
        "cuisine": "kopi,_teh,_juice, coklat, roti bakar, dll",
        "internet_access": "no",
        "name": "Warkop Nobar",
        "opening_hours": "16:00-02:00"
      },
      "geometry": {
        "type": "Point",
        "coordinates": [
          112.6447475,
          -7.2531434
        ]
      },
      "id": "node/2633385707"
    },
    {
      "type": "Feature",
      "properties": {
        "@id": "node/3317227635",
        "amenity": "cafe",
        "cuisine": "international",
        "name": "The Café",
        "opening_hours": "Mo-Su 11:00-21:00",
        "website": "https://houseofsampoerna.museum/e_historybeauty_cafe.htm"
      },
      "geometry": {
        "type": "Point",
        "coordinates": [
          112.7344491,
          -7.2310091
        ]
      },
      "id": "node/3317227635"
    },
    {
      "type": "Feature",
      "properties": {
        "@id": "node/3953125335",
        "amenity": "cafe",
        "brand": "Starbucks",
        "brand:wikidata": "Q37158",
        "brand:wikipedia": "en:Starbucks",
        "cuisine": "coffee_shop",
        "internet_access": "yes",
        "name": "Starbucks",
        "official_name": "Starbucks Coffee",
        "operator": "PT Sari Coffee Indonesia",
        "takeaway": "yes"
      },
      "geometry": {
        "type": "Point",
        "coordinates": [
          112.7504732,
          -7.2621634
        ]
      },
      "id": "node/3953125335"
    },
    {
      "type": "Feature",
      "properties": {
        "@id": "node/4188606200",
        "addr:city": "Bongkaran, Surabaya",
        "addr:postcode": "60161",
        "addr:street": "Jalan Stasiun Kota",
        "amenity": "cafe",
        "name": "K1 Karaoke Lounge"
      },
      "geometry": {
        "type": "Point",
        "coordinates": [
          112.7413808,
          -7.242816
        ]
      },
      "id": "node/4188606200"
    },
    {
      "type": "Feature",
      "properties": {
        "@id": "node/4188777124",
        "addr:city": "East Java, Surabaya",
        "addr:housenumber": "Nomor 161-165",
        "addr:postcode": "60236",
        "addr:street": "Jalan Siwalankerto",
        "amenity": "cafe",
        "name": "High Point Cafe Speciality"
      },
      "geometry": {
        "type": "Point",
        "coordinates": [
          112.7388901,
          -7.337004
        ]
      },
      "id": "node/4188777124"
    },
    {
      "type": "Feature",
      "properties": {
        "@id": "node/4188778818",
        "addr:city": "Gubeng",
        "addr:housenumber": "Nomor 40",
        "addr:postcode": "60281",
        "addr:street": "Jalan Sumatera",
        "amenity": "cafe",
        "name": "Historica Coffee & Pastry"
      },
      "geometry": {
        "type": "Point",
        "coordinates": [
          112.7494463,
          -7.2694972
        ]
      },
      "id": "node/4188778818"
    },
    {
      "type": "Feature",
      "properties": {
        "@id": "node/4188865096",
        "addr:city": "Kota SBY, Jawa Timur, Indonesia",
        "addr:housenumber": "1",
        "addr:postcode": "64412",
        "addr:street": "Jl. Semarang",
        "amenity": "cafe",
        "name": "Kedai kopi SINGGALANG"
      },
      "geometry": {
        "type": "Point",
        "coordinates": [
          112.7307395,
          -7.2492813
        ]
      },
      "id": "node/4188865096"
    },
    {
      "type": "Feature",
      "properties": {
        "@id": "node/4189063901",
        "addr:city": "Keputran, Tegalsari, Surabaya",
        "addr:postcode": "60265",
        "addr:street": "Jalan Mojopahit",
        "amenity": "cafe",
        "name": "Autonet"
      },
      "geometry": {
        "type": "Point",
        "coordinates": [
          112.7425595,
          -7.2819951
        ]
      },
      "id": "node/4189063901"
    },
    {
      "type": "Feature",
      "properties": {
        "@id": "node/4189279554",
        "addr:city": "Manyar Sabrangan, Surabaya, Jawa Timur, Indonesia",
        "addr:housenumber": "411",
        "addr:postcode": "60115",
        "addr:street": "Jalan Kertajaya Indah Tengah V",
        "amenity": "cafe",
        "name": "Konig"
      },
      "geometry": {
        "type": "Point",
        "coordinates": [
          112.7762419,
          -7.2818933
        ]
      },
      "id": "node/4189279554"
    },
    {
      "type": "Feature",
      "properties": {
        "@id": "node/4190997489",
        "addr:city": "Darmo, Wonokromo, Surabaya, Jawa Timur, Indonesia",
        "addr:postcode": "60241",
        "addr:street": "Jalan Boulevard Indah",
        "amenity": "cafe",
        "internet_access": "wlan",
        "name": "Kudos Cafe",
        "opening_hours": "Mo-Th 08:00-22:00; Fr-Su 08:00-23:00",
        "phone": "+623199016791",
        "website": "https://www.instagram.com/kudos_cafe/"
      },
      "geometry": {
        "type": "Point",
        "coordinates": [
          112.6751715,
          -7.294822
        ]
      },
      "id": "node/4190997489"
    },
    {
      "type": "Feature",
      "properties": {
        "@id": "node/4191048384",
        "addr:city": "Menur Pumpungan, Sukolilo, Surabaya, East Java",
        "addr:housenumber": "No.53D",
        "addr:postcode": "60118",
        "addr:street": "Jalan Raya Manyar",
        "amenity": "cafe",
        "name": "Sapi Milk"
      },
      "geometry": {
        "type": "Point",
        "coordinates": [
          112.7625001,
          -7.2948767
        ]
      },
      "id": "node/4191048384"
    },
    {
      "type": "Feature",
      "properties": {
        "@id": "node/4191074244",
        "addr:city": "RT.002/RW.05, Gubeng, Kota Surabaya, Jawa Timur, Indonesia",
        "addr:housenumber": "31",
        "addr:postcode": "60281",
        "addr:street": "Jalan Sumatra",
        "amenity": "cafe",
        "name": "Layali Shisha Cafe and Lounge"
      },
      "geometry": {
        "type": "Point",
        "coordinates": [
          112.7506084,
          -7.2692876
        ]
      },
      "id": "node/4191074244"
    },
    {
      "type": "Feature",
      "properties": {
        "@id": "node/4191092612",
        "addr:city": "Tegalsari, Dr. Sutomo, Surabaya",
        "addr:housenumber": "No.79",
        "addr:postcode": "60264",
        "addr:street": "Jl. Untung Suropati",
        "amenity": "cafe",
        "name": "Blackbarn Coffee"
      },
      "geometry": {
        "type": "Point",
        "coordinates": [
          112.736194,
          -7.2848049
        ]
      },
      "id": "node/4191092612"
    },
    {
      "type": "Feature",
      "properties": {
        "@id": "node/4191121303",
        "addr:city": "Tegalsari, Kota SBY, Jawa Timur",
        "addr:housenumber": "2",
        "addr:postcode": "60262",
        "addr:street": "Jalan Pregolan",
        "amenity": "cafe",
        "cuisine": "sandwich;breakfast;ice_cream;cake;coffee_shop",
        "internet_access": "wlan",
        "name": "Le Cafe Gourmand",
        "opening_hours": "Mo-Su 08:00-22:00",
        "phone": "5355511"
      },
      "geometry": {
        "type": "Point",
        "coordinates": [
          112.7399656,
          -7.2661781
        ]
      },
      "id": "node/4191121303"
    },
    {
      "type": "Feature",
      "properties": {
        "@id": "node/4191144649",
        "addr:city": "Tandes, Sukomanunggal, Jawa Timur",
        "addr:housenumber": "2",
        "addr:postcode": "60184",
        "addr:street": "Jalan Sukomanunggal Jaya Blok YL",
        "amenity": "cafe",
        "name": "Libby cafe"
      },
      "geometry": {
        "type": "Point",
        "coordinates": [
          112.6967882,
          -7.2696212
        ]
      },
      "id": "node/4191144649"
    },
    {
      "type": "Feature",
      "properties": {
        "@id": "node/4191179831",
        "addr:city": "Baratajaya, Gubeng, Surabaya, East Java",
        "addr:postcode": "60284",
        "addr:street": "Jl. Raya Nginden No.72-A",
        "amenity": "cafe",
        "name": "Cafe Glass"
      },
      "geometry": {
        "type": "Point",
        "coordinates": [
          112.7618885,
          -7.3037377
        ]
      },
      "id": "node/4191179831"
    },
    {
      "type": "Feature",
      "properties": {
        "@id": "node/4191188521",
        "addr:city": "Genteng, Ketabang, Surabaya",
        "addr:housenumber": "67 - 69",
        "addr:postcode": "60272",
        "addr:street": "Jalan Walikota Mustajab",
        "alt_name": "Calibre Coffee Roasters",
        "amenity": "cafe",
        "contact:instagram": "https://instagram.com/calibrecoffeeroasters",
        "cuisine": "savory_pancakes;tea;cake;pasta;pancake;sandwich;breakfast;international;coffee_shop",
        "diet:vegetarian": "yes",
        "internet_access": "wlan",
        "internet_access:fee": "no",
        "name": "Calibre",
        "name:de": "Calibre Kaffeerösterei",
        "name:en": "Calibre Coffee Roasters",
        "opening_hours": "Su-Th 10:00-22:00; Fr-Sa 10:00-23:30",
        "outdoor_seating": "yes",
        "phone": "+62 31 5454801",
        "smoking": "outside",
        "takeaway": "yes",
        "wheelchair": "limited"
      },
      "geometry": {
        "type": "Point",
        "coordinates": [
          112.7488027,
          -7.2611565
        ]
      },
      "id": "node/4191188521"
    },
    {
      "type": "Feature",
      "properties": {
        "@id": "node/4191236894",
        "addr:city": "Sawahan, Surabaya",
        "addr:postcode": "60251",
        "addr:street": "Jalan Anjasmoro",
        "amenity": "cafe",
        "name": "Caturra Espresso"
      },
      "geometry": {
        "type": "Point",
        "coordinates": [
          112.7294178,
          -7.2583456
        ]
      },
      "id": "node/4191236894"
    },
    {
      "type": "Feature",
      "properties": {
        "@id": "node/4191388843",
        "addr:city": "Keputran, Tegalsari, Surabaya",
        "addr:postcode": "60265",
        "addr:street": "Jl. Tumapael 33",
        "amenity": "cafe",
        "name": "Coffeezone"
      },
      "geometry": {
        "type": "Point",
        "coordinates": [
          112.7414089,
          -7.2837039
        ]
      },
      "id": "node/4191388843"
    },
    {
      "type": "Feature",
      "properties": {
        "@id": "node/4191391086",
        "addr:city": "Klampis Ngasem, Sukolilo, Surabaya",
        "addr:postcode": "60117",
        "addr:street": "Jl. Klampis Jaya",
        "amenity": "cafe",
        "name": "Coffee Toffee"
      },
      "geometry": {
        "type": "Point",
        "coordinates": [
          112.7757162,
          -7.2868818
        ]
      },
      "id": "node/4191391086"
    },
    {
      "type": "Feature",
      "properties": {
        "@id": "node/4191427580",
        "addr:city": "Manyar Sabrangan, Surabaya, Jawa Timur, Indonesia",
        "addr:housenumber": "No. 24",
        "addr:postcode": "60115",
        "addr:street": "Jalan Kertajaya Indah Tengah",
        "amenity": "cafe",
        "name": "Communal"
      },
      "geometry": {
        "type": "Point",
        "coordinates": [
          112.7762654,
          -7.2821635
        ]
      },
      "id": "node/4191427580"
    },
    {
      "type": "Feature",
      "properties": {
        "@id": "node/4192739036",
        "addr:city": "Pradahkali Kendal, Dukuh Pakis, Kota SBY, Jawa Timur, Indonesia",
        "addr:housenumber": "38",
        "addr:postcode": "60226",
        "addr:street": "Jl. Raya Darmo Permai I",
        "amenity": "cafe",
        "name": "Monopole Coffee Lab"
      },
      "geometry": {
        "type": "Point",
        "coordinates": [
          112.694808,
          -7.2828406
        ]
      },
      "id": "node/4192739036"
    },
    {
      "type": "Feature",
      "properties": {
        "@id": "node/4192761149",
        "addr:city": "Ketintang, Gayungan, Surabaya",
        "addr:housenumber": "No. 88",
        "addr:postcode": "60231",
        "addr:street": "Jalan Ahmad Yani",
        "amenity": "cafe",
        "brand": "Starbucks",
        "brand:wikidata": "Q37158",
        "brand:wikipedia": "en:Starbucks",
        "cuisine": "coffee_shop",
        "name": "Starbucks",
        "official_name": "Starbucks Coffee",
        "operator": "PT Sari Coffee Indonesia",
        "takeaway": "yes"
      },
      "geometry": {
        "type": "Point",
        "coordinates": [
          112.7325051,
          -7.32027
        ]
      },
      "id": "node/4192761149"
    },
    {
      "type": "Feature",
      "properties": {
        "@id": "node/4192765244",
        "addr:city": "Mulyorejo, Surabaya, East Java",
        "addr:housenumber": "No.35-39",
        "addr:postcode": "60115",
        "addr:street": "Jl. Dr. Ir. H. Soekarno",
        "amenity": "cafe",
        "brand": "Starbucks",
        "brand:wikidata": "Q37158",
        "brand:wikipedia": "en:Starbucks",
        "cuisine": "coffee_shop",
        "name": "Starbucks",
        "official_name": "Starbucks Coffee",
        "operator": "PT Sari Coffee Indonesia",
        "takeaway": "yes"
      },
      "geometry": {
        "type": "Point",
        "coordinates": [
          112.7820139,
          -7.2744901
        ]
      },
      "id": "node/4192765244"
    },
    {
      "type": "Feature",
      "properties": {
        "@id": "node/4192766545",
        "addr:city": "Pakis, Surabaya, East Java",
        "addr:housenumber": "No. 87",
        "addr:postcode": "60225",
        "addr:street": "JL. Mayor Jenderal Sungkono",
        "amenity": "cafe",
        "brand": "Starbucks",
        "brand:wikidata": "Q37158",
        "brand:wikipedia": "en:Starbucks",
        "cuisine": "coffee_shop",
        "name": "Starbucks",
        "official_name": "Starbucks Coffee",
        "operator": "PT Sari Coffee Indonesia",
        "takeaway": "yes"
      },
      "geometry": {
        "type": "Point",
        "coordinates": [
          112.7188218,
          -7.2926634
        ]
      },
      "id": "node/4192766545"
    },
    {
      "type": "Feature",
      "properties": {
        "@id": "node/4192769085",
        "addr:city": "Darmo, Wonokromo, Surabaya, East Java",
        "addr:housenumber": "No.2",
        "addr:postcode": "60241",
        "addr:street": "Jl. Juwono",
        "amenity": "cafe",
        "name": "Stilrod Cycle Shop"
      },
      "geometry": {
        "type": "Point",
        "coordinates": [
          112.7394879,
          -7.293055
        ]
      },
      "id": "node/4192769085"
    },
    {
      "type": "Feature",
      "properties": {
        "@id": "node/4192787118",
        "addr:city": "Ngagelrejo, Wonokromo, Surabaya",
        "addr:postcode": "60245",
        "addr:street": "Jl. Ngagel Redjo",
        "amenity": "cafe",
        "name": "STMJ Bu Nunuk Pojok Ngagel"
      },
      "geometry": {
        "type": "Point",
        "coordinates": [
          112.7461441,
          -7.2944924
        ]
      },
      "id": "node/4192787118"
    },
    {
      "type": "Feature",
      "properties": {
        "@id": "node/4192912669",
        "addr:city": "Pacar Keling, Tambaksari, Surabaya, East Java",
        "addr:housenumber": "No.2",
        "addr:postcode": "60131",
        "addr:street": "Jl. Gubeng Masjid",
        "amenity": "cafe",
        "name": "Surabaya CAFÈ"
      },
      "geometry": {
        "type": "Point",
        "coordinates": [
          112.7527206,
          -7.2654319
        ]
      },
      "id": "node/4192912669"
    },
    {
      "type": "Feature",
      "properties": {
        "@id": "node/4193058429",
        "addr:city": "Mulyorejo, Surabaya",
        "addr:postcode": "60115",
        "addr:street": "Galaxy Mall - Management - Office Lantai I No. 112, JL. Dharma Husada Indah Timur, No. 37",
        "amenity": "cafe",
        "name": "Excelso"
      },
      "geometry": {
        "type": "Point",
        "coordinates": [
          112.7818725,
          -7.2763121
        ]
      },
      "id": "node/4193058429"
    },
    {
      "type": "Feature",
      "properties": {
        "@id": "node/4193096146",
        "addr:city": "emur Wonosari, Rungkut, Surabaya",
        "addr:housenumber": "No.80",
        "addr:postcode": "60237",
        "addr:street": "Jl. Raya Kendangsari",
        "amenity": "cafe",
        "name": "Feliz Guest House & Cafe"
      },
      "geometry": {
        "type": "Point",
        "coordinates": [
          112.7463631,
          -7.3219722
        ]
      },
      "id": "node/4193096146"
    },
    {
      "type": "Feature",
      "properties": {
        "@id": "node/4193187205",
        "addr:city": "Mulyorejo, Surabaya, East Java",
        "addr:postcode": "60115",
        "addr:street": "Jl. Wisma Permai 1",
        "amenity": "cafe",
        "name": "Teras Rumah Cafe"
      },
      "geometry": {
        "type": "Point",
        "coordinates": [
          112.7954887,
          -7.2737522
        ]
      },
      "id": "node/4193187205"
    },
    {
      "type": "Feature",
      "properties": {
        "@id": "node/4193209039",
        "addr:city": "Pakis, Surabaya, East Java",
        "addr:postcode": "60225",
        "addr:street": "JL. Mayjend Sungkono",
        "amenity": "cafe",
        "brand": "The Coffee Bean & Tea Leaf",
        "brand:wikidata": "Q1141384",
        "brand:wikipedia": "en:The Coffee Bean & Tea Leaf",
        "cuisine": "coffee_shop",
        "name": "The Coffee Bean & Tea Leaf",
        "takeaway": "yes"
      },
      "geometry": {
        "type": "Point",
        "coordinates": [
          112.719656,
          -7.2930433
        ]
      },
      "id": "node/4193209039"
    },
    {
      "type": "Feature",
      "properties": {
        "@id": "node/4193358660",
        "addr:city": "Dr. Sutomo, Tegalsari, Surabaya",
        "addr:housenumber": "No.63",
        "addr:postcode": "60264",
        "addr:street": "Jl. Untung Suropati",
        "amenity": "cafe",
        "name": "Too Too Moo Patisserie"
      },
      "geometry": {
        "type": "Point",
        "coordinates": [
          112.7360311,
          -7.2840504
        ]
      },
      "id": "node/4193358660"
    },
    {
      "type": "Feature",
      "properties": {
        "@id": "node/4212997992",
        "amenity": "cafe",
        "cuisine": "american",
        "internet_access": "wlan",
        "name": "Kopi Ganes",
        "smoking": "yes"
      },
      "geometry": {
        "type": "Point",
        "coordinates": [
          112.8040771,
          -7.2876459
        ]
      },
      "id": "node/4212997992"
    },
    {
      "type": "Feature",
      "properties": {
        "@id": "node/4260123796",
        "addr:city": "Surabaya",
        "addr:housenumber": "15",
        "addr:postcode": "60271",
        "addr:street": "Jalan Yos Sudarso",
        "amenity": "cafe",
        "name": "Zangrandi, Ice Cream"
      },
      "geometry": {
        "type": "Point",
        "coordinates": [
          112.7460796,
          -7.2635031
        ]
      },
      "id": "node/4260123796"
    },
    {
      "type": "Feature",
      "properties": {
        "@id": "node/4260125476",
        "addr:city": "Surabaya",
        "addr:housenumber": "101 - 103",
        "addr:postcode": "60256",
        "addr:street": "Jalan Mayjend. Sungkono",
        "amenity": "cafe",
        "name": "The Avenue Lounge Bar"
      },
      "geometry": {
        "type": "Point",
        "coordinates": [
          112.7155623,
          -7.2914353
        ]
      },
      "id": "node/4260125476"
    },
    {
      "type": "Feature",
      "properties": {
        "@id": "node/4260137173",
        "addr:city": "Surabaya",
        "addr:housenumber": "25 C",
        "addr:postcode": "60117",
        "addr:street": "Jl. Klampis Jaya",
        "amenity": "cafe",
        "name": "Kedai Kopi (Keiko)"
      },
      "geometry": {
        "type": "Point",
        "coordinates": [
          112.7759749,
          -7.2858843
        ]
      },
      "id": "node/4260137173"
    },
    {
      "type": "Feature",
      "properties": {
        "@id": "node/4260141068",
        "addr:city": "Surabaya",
        "addr:housenumber": "71",
        "addr:postcode": "60237",
        "addr:street": "Jalan Jemur Sari",
        "amenity": "cafe",
        "name": "De mandailing Cafe n Eatery Jemur Sari"
      },
      "geometry": {
        "type": "Point",
        "coordinates": [
          112.7423292,
          -7.322603
        ]
      },
      "id": "node/4260141068"
    },
    {
      "type": "Feature",
      "properties": {
        "@id": "node/4260143149",
        "addr:city": "Surabaya",
        "addr:postcode": "60284",
        "addr:street": "Jalan Krukah Timur",
        "amenity": "cafe",
        "name": "Otoclassic Cafe"
      },
      "geometry": {
        "type": "Point",
        "coordinates": [
          112.7572188,
          -7.2940318
        ]
      },
      "id": "node/4260143149"
    },
    {
      "type": "Feature",
      "properties": {
        "@id": "node/4260144465",
        "addr:city": "Surabaya",
        "addr:housenumber": "30",
        "addr:postcode": "60245",
        "addr:street": "Jalan Bung Tomo",
        "amenity": "cafe",
        "name": "GR Café (Gue Rasa ini Café)"
      },
      "geometry": {
        "type": "Point",
        "coordinates": [
          112.7495072,
          -7.2923125
        ]
      },
      "id": "node/4260144465"
    },
    {
      "type": "Feature",
      "properties": {
        "@id": "node/4260149093",
        "addr:city": "Surabaya",
        "addr:housenumber": "6",
        "addr:postcode": "60246",
        "addr:street": "Jalan Bung Tomo",
        "amenity": "cafe",
        "name": "One Dollar Cafe"
      },
      "geometry": {
        "type": "Point",
        "coordinates": [
          112.7465567,
          -7.2907982
        ]
      },
      "id": "node/4260149093"
    },
    {
      "type": "Feature",
      "properties": {
        "@id": "node/4267713041",
        "addr:city": "Surabaya",
        "addr:housenumber": "93",
        "addr:postcode": "60285",
        "addr:street": "Jalan Menur",
        "amenity": "cafe",
        "name": "Kafe Panorama"
      },
      "geometry": {
        "type": "Point",
        "coordinates": [
          112.7622228,
          -7.2824084
        ]
      },
      "id": "node/4267713041"
    },
    {
      "type": "Feature",
      "properties": {
        "@id": "node/4267809700",
        "addr:city": "Surabaya",
        "addr:housenumber": "5",
        "addr:postcode": "60246",
        "addr:street": "Jalan Bawean",
        "amenity": "cafe",
        "name": "Shae Cafe and Eatery"
      },
      "geometry": {
        "type": "Point",
        "coordinates": [
          112.746638,
          -7.2773927
        ]
      },
      "id": "node/4267809700"
    },
    {
      "type": "Feature",
      "properties": {
        "@id": "node/4270975190",
        "addr:housenumber": "4",
        "addr:street": "Jalan Pregolan",
        "amenity": "cafe",
        "cuisine": "sandwich;tea;cake;coffee_shop;asian;american;pasta;pizza",
        "internet_access": "wlan",
        "name": "Noach Cafe & Bistro",
        "opening_hours": "Mo-Th 11:00-22:00; Fr-Sa 11:00-22:00"
      },
      "geometry": {
        "type": "Point",
        "coordinates": [
          112.7398709,
          -7.2664268
        ]
      },
      "id": "node/4270975190"
    },
    {
      "type": "Feature",
      "properties": {
        "@id": "node/4296327398",
        "amenity": "cafe",
        "name": "KPK Latar Ombo"
      },
      "geometry": {
        "type": "Point",
        "coordinates": [
          112.7206005,
          -7.3086561
        ]
      },
      "id": "node/4296327398"
    },
    {
      "type": "Feature",
      "properties": {
        "@id": "node/4342496192",
        "addr:postcode": "60296",
        "addr:street": "Wonorejo",
        "amenity": "cafe",
        "internet_access": "wlan",
        "name": "Warkop Damai"
      },
      "geometry": {
        "type": "Point",
        "coordinates": [
          112.7973987,
          -7.3122818
        ]
      },
      "id": "node/4342496192"
    },
    {
      "type": "Feature",
      "properties": {
        "@id": "node/4353734393",
        "amenity": "cafe",
        "contact:facebook": "https://www.facebook.com/afteryoubistroterrace/",
        "contact:instagram": "#afteryoubistroandterrace",
        "internet_access": "yes",
        "name": "After you",
        "opening_hours": "Mo-Su 11:00-23:55",
        "phone": "+6281331986660"
      },
      "geometry": {
        "type": "Point",
        "coordinates": [
          112.6478516,
          -7.2914818
        ]
      },
      "id": "node/4353734393"
    },
    {
      "type": "Feature",
      "properties": {
        "@id": "node/4361191857",
        "amenity": "cafe",
        "cuisine": "indonesian;fish_and_chips;sandwich;pizza",
        "internet_access": "wlan",
        "name": "Excelso",
        "opening_hours": "Mo-Su 10:00-22:00",
        "outdoor_seating": "yes",
        "smoking": "outside",
        "website": "https://excelso-coffee.com/",
        "wifi": "yes"
      },
      "geometry": {
        "type": "Point",
        "coordinates": [
          112.6541706,
          -7.2931421
        ]
      },
      "id": "node/4361191857"
    },
    {
      "type": "Feature",
      "properties": {
        "@id": "node/4378996689",
        "addr:street": "jl.ketintang II",
        "amenity": "cafe",
        "opening_hours": "Mo-Su 07:00-00:00"
      },
      "geometry": {
        "type": "Point",
        "coordinates": [
          112.7323964,
          -7.3109666
        ]
      },
      "id": "node/4378996689"
    },
    {
      "type": "Feature",
      "properties": {
        "@id": "node/4384067060",
        "amenity": "cafe",
        "name": "Pisa",
        "opening_hours": "Mo-Su 11:00-21:00",
        "outdoor_seating": "no",
        "phone": "+62317320220",
        "website": "http://www.kafepisa.com"
      },
      "geometry": {
        "type": "Point",
        "coordinates": [
          112.6838289,
          -7.2816688
        ]
      },
      "id": "node/4384067060"
    },
    {
      "type": "Feature",
      "properties": {
        "@id": "node/4405219506",
        "amenity": "cafe",
        "brand": "Starbucks",
        "brand:wikidata": "Q37158",
        "brand:wikipedia": "en:Starbucks",
        "contact:facebook": "https://www.facebook.com/StarbucksIndonesia",
        "cuisine": "coffee_shop",
        "internet_access": "yes",
        "internet_access:fee": "no",
        "name": "Starbucks",
        "official_name": "Starbucks Coffee",
        "opening_hours": "Mo-Su 07:30-23:00",
        "operator": "PT Sari Coffee Indonesia",
        "outdoor_seating": "yes",
        "phone": "+623199001346",
        "smoking": "outside",
        "takeaway": "yes",
        "website": "https://www.starbucks.co.id/store/116616/ID/Graha-Family-Hospital/Jl-Boulevard-Famili-Selatan-Kav-1-Surabaya-JI"
      },
      "geometry": {
        "type": "Point",
        "coordinates": [
          112.6760103,
          -7.2990766
        ]
      },
      "id": "node/4405219506"
    },
    {
      "type": "Feature",
      "properties": {
        "@id": "node/4478356333",
        "amenity": "cafe",
        "contact:facebook": "https://www.facebook.com/pages/Mix-Tix-Cafe-Citraland-Surabaya/883330128371834",
        "name": "MIXTIX",
        "opening_hours": "We-Su 15:00-00:00, Mo 15:00-00:00",
        "phone": "+6282178787890"
      },
      "geometry": {
        "type": "Point",
        "coordinates": [
          112.649344,
          -7.2984682
        ]
      },
      "id": "node/4478356333"
    },
    {
      "type": "Feature",
      "properties": {
        "@id": "node/4507463564",
        "amenity": "cafe",
        "description": "Coffee and bakery",
        "internet_access": "wlan",
        "name": "Spago",
        "opening_hours": "Mo-Su 10:30-22:30"
      },
      "geometry": {
        "type": "Point",
        "coordinates": [
          112.6546441,
          -7.290712
        ]
      },
      "id": "node/4507463564"
    },
    {
      "type": "Feature",
      "properties": {
        "@id": "node/4516864624",
        "amenity": "cafe",
        "name": "Excelso"
      },
      "geometry": {
        "type": "Point",
        "coordinates": [
          112.743946,
          -7.2693945
        ]
      },
      "id": "node/4516864624"
    },
    {
      "type": "Feature",
      "properties": {
        "@id": "node/4548836566",
        "amenity": "cafe",
        "name": "Surabaya pagi"
      },
      "geometry": {
        "type": "Point",
        "coordinates": [
          112.7361972,
          -7.2378814
        ]
      },
      "id": "node/4548836566"
    },
    {
      "type": "Feature",
      "properties": {
        "@id": "node/4599296300",
        "addr:housenumber": "11",
        "addr:street": "Taman puspa raya",
        "amenity": "cafe",
        "contact:facebook": "https://www.facebook.com/gatherinc/",
        "contact:instagram": "https://www.instagram.com/gatherinc/",
        "cuisine": "bistro;bakery",
        "delivery": "no",
        "email": "gatherinc.sby@gmail.com",
        "internet_access": "wlan",
        "internet_access:fee": "no",
        "name": "GatherInc.",
        "opening_hours": "Mo-Fr 10:00-22:00; Sa, Su 10:00-23:00",
        "outdoor_seating": "yes",
        "phone": "+623199019881",
        "smoking": "outside",
        "start_date": "2017",
        "website": "http://gatherinc-bistro.com/"
      },
      "geometry": {
        "type": "Point",
        "coordinates": [
          112.6454351,
          -7.2781639
        ]
      },
      "id": "node/4599296300"
    },
    {
      "type": "Feature",
      "properties": {
        "@id": "node/4601097829",
        "amenity": "cafe",
        "name": "Philip's coffee",
        "opening_hours": "Tu-Su 09:00-21:00",
        "outdoor_seating": "no",
        "phone": "+62 31 7321507"
      },
      "geometry": {
        "type": "Point",
        "coordinates": [
          112.6765087,
          -7.2930653
        ]
      },
      "id": "node/4601097829"
    },
    {
      "type": "Feature",
      "properties": {
        "@id": "node/4601097830",
        "amenity": "cafe",
        "name": "Ohana"
      },
      "geometry": {
        "type": "Point",
        "coordinates": [
          112.6765905,
          -7.2927503
        ]
      },
      "id": "node/4601097830"
    },
    {
      "type": "Feature",
      "properties": {
        "@id": "node/4601097898",
        "addr:city": "Surabaya",
        "amenity": "cafe",
        "contact:instagram": "https://www.instagram.com/elizabethjamescafe/",
        "cuisine": "international;chinese",
        "name": "Elizabeth James",
        "opening_hours": "Mo-Su 10:30-22:00",
        "outdoor_seating": "no",
        "phone": "+62317386789"
      },
      "geometry": {
        "type": "Point",
        "coordinates": [
          112.6768816,
          -7.293926
        ]
      },
      "id": "node/4601097898"
    },
    {
      "type": "Feature",
      "properties": {
        "@id": "node/4701193190",
        "addr:housenumber": "NC 6",
        "addr:street": "Jalan Dr. Ir. H. Soekarno",
        "amenity": "cafe",
        "internet_access": "wlan",
        "name:en": "Coffee Estatindo",
        "opening_hours": "Mo-Su 10:00-23:00"
      },
      "geometry": {
        "type": "Point",
        "coordinates": [
          112.7804403,
          -7.3125985
        ]
      },
      "id": "node/4701193190"
    },
    {
      "type": "Feature",
      "properties": {
        "@id": "node/4723341396",
        "amenity": "cafe",
        "brand": "Starbucks",
        "brand:wikidata": "Q37158",
        "brand:wikipedia": "en:Starbucks",
        "cuisine": "coffee_shop",
        "level": "0",
        "name": "Starbucks",
        "official_name": "Starbucks Coffee",
        "opening_hours": "Mo-Su 10:00-22:00",
        "operator": "PT Sari Coffee Indonesia",
        "takeaway": "yes"
      },
      "geometry": {
        "type": "Point",
        "coordinates": [
          112.6755586,
          -7.2899163
        ]
      },
      "id": "node/4723341396"
    },
    {
      "type": "Feature",
      "properties": {
        "@id": "node/4745225123",
        "addr:street": "Jalan Jenderal Basuki Rachmat",
        "amenity": "cafe",
        "name:en": "Coyote"
      },
      "geometry": {
        "type": "Point",
        "coordinates": [
          112.7399021,
          -7.2635586
        ]
      },
      "id": "node/4745225123"
    },
    {
      "type": "Feature",
      "properties": {
        "@id": "node/4746176616",
        "amenity": "cafe",
        "description": "coffee bar",
        "name": "Supresso",
        "website": "https://www.supresso.com/"
      },
      "geometry": {
        "type": "Point",
        "coordinates": [
          112.6752333,
          -7.2933376
        ]
      },
      "id": "node/4746176616"
    },
    {
      "type": "Feature",
      "properties": {
        "@id": "node/4746184767",
        "amenity": "cafe",
        "name": "Kabinet",
        "opening_hours": "Mo-Su 08:00-22:00",
        "website": "https://kabinetcoffee.com/"
      },
      "geometry": {
        "type": "Point",
        "coordinates": [
          112.6750664,
          -7.2961875
        ]
      },
      "id": "node/4746184767"
    },
    {
      "type": "Feature",
      "properties": {
        "@id": "node/4746185020",
        "amenity": "cafe",
        "name": "Le cafe gourmand",
        "opening_hours": "Mo-Su 08:00-23:00",
        "phone": "+62 31 7322552"
      },
      "geometry": {
        "type": "Point",
        "coordinates": [
          112.6760144,
          -7.2959088
        ]
      },
      "id": "node/4746185020"
    },
    {
      "type": "Feature",
      "properties": {
        "@id": "node/4757366122",
        "amenity": "cafe",
        "brand": "Starbucks",
        "brand:wikidata": "Q37158",
        "brand:wikipedia": "en:Starbucks",
        "cuisine": "coffee_shop",
        "internet_access": "yes",
        "internet_access:fee": "no",
        "name": "Starbucks",
        "official_name": "Starbucks Coffee",
        "opening_hours": "Mo-Su 07:00-22:00",
        "operator": "PT Sari Coffee Indonesia",
        "outdoor_seating": "yes",
        "smoking": "outside",
        "takeaway": "yes",
        "website": "https://www.starbucks.co.id/"
      },
      "geometry": {
        "type": "Point",
        "coordinates": [
          112.6542474,
          -7.2964397
        ]
      },
      "id": "node/4757366122"
    },
    {
      "type": "Feature",
      "properties": {
        "@id": "node/4824490649",
        "addr:city": "Surabaya",
        "addr:street": "Jalan Bukit Darmo Boulevard",
        "amenity": "cafe",
        "brand": "Starbucks",
        "brand:wikidata": "Q37158",
        "brand:wikipedia": "en:Starbucks",
        "cuisine": "coffee_shop",
        "internet_access": "yes",
        "internet_access:fee": "no",
        "name": "Starbucks",
        "official_name": "Starbucks Coffee",
        "opening_hours": "Mo-Su 08:00-22:00",
        "operator": "PT Sari Coffee Indonesia",
        "outdoor_seating": "no",
        "phone": "+623151163546",
        "smoking": "no",
        "takeaway": "yes",
        "website": "https://www.starbucks.co.id/store/1018293/ID/Lenmarck-Surabaya/Jalan-Bukit-Darmo-Boulevard-Office-park-2-No-1"
      },
      "geometry": {
        "type": "Point",
        "coordinates": [
          112.6805656,
          -7.2859307
        ]
      },
      "id": "node/4824490649"
    },
    {
      "type": "Feature",
      "properties": {
        "@id": "node/4830378536",
        "amenity": "cafe",
        "contact:instagram": "https://www.instagram.com/caliptocafe/",
        "cuisine": "club_sandwich",
        "internet_access": "yes",
        "internet_access:fee": "no",
        "internet_access:ssid": "CALIPTO CAFE",
        "name": "Calipto",
        "opening_hours": "Tu-Su 09:00-21:00",
        "phone": "+62 812 3386 6919",
        "smoking": "outside",
        "start_date": "2017"
      },
      "geometry": {
        "type": "Point",
        "coordinates": [
          112.645619,
          -7.2790226
        ]
      },
      "id": "node/4830378536"
    },
    {
      "type": "Feature",
      "properties": {
        "@id": "node/4873369734",
        "amenity": "cafe",
        "name": "Confit",
        "opening_hours": "Mo-Su 06:45-22:00",
        "outdoor_seating": "no",
        "phone": "+6289690780364",
        "smoking": "no"
      },
      "geometry": {
        "type": "Point",
        "coordinates": [
          112.6766185,
          -7.299552
        ]
      },
      "id": "node/4873369734"
    },
    {
      "type": "Feature",
      "properties": {
        "@id": "node/4903244721",
        "amenity": "cafe",
        "name:en": "Warkop tugu emas"
      },
      "geometry": {
        "type": "Point",
        "coordinates": [
          112.7236817,
          -7.29169
        ]
      },
      "id": "node/4903244721"
    },
    {
      "type": "Feature",
      "properties": {
        "@id": "node/4916263859",
        "amenity": "cafe",
        "brand": "Starbucks",
        "brand:wikidata": "Q37158",
        "brand:wikipedia": "en:Starbucks",
        "cuisine": "coffee_shop",
        "internet_access": "wlan",
        "internet_access:fee": "no",
        "level": "0",
        "name": "Starbucks",
        "official_name": "Starbucks Coffee",
        "opening_hours": "Mo-Su 10:00-22:00",
        "operator": "PT Sari Coffee Indonesia",
        "outdoor_seating": "no",
        "smoking": "no",
        "takeaway": "yes"
      },
      "geometry": {
        "type": "Point",
        "coordinates": [
          112.6751859,
          -7.2875575
        ]
      },
      "id": "node/4916263859"
    },
    {
      "type": "Feature",
      "properties": {
        "@id": "node/4965692721",
        "addr:street": "Jalan Embong Blimbing",
        "amenity": "cafe",
        "cuisine": "indonesian",
        "name:en": "Depot 20",
        "opening_hours": "Mo-Su 09:00-21:00"
      },
      "geometry": {
        "type": "Point",
        "coordinates": [
          112.7403323,
          -7.2697812
        ]
      },
      "id": "node/4965692721"
    },
    {
      "type": "Feature",
      "properties": {
        "@id": "node/5229420322",
        "amenity": "cafe",
        "name:en": "Skyline design"
      },
      "geometry": {
        "type": "Point",
        "coordinates": [
          112.6835243,
          -7.2830152
        ]
      },
      "id": "node/5229420322"
    },
    {
      "type": "Feature",
      "properties": {
        "@id": "node/5237495322",
        "amenity": "cafe",
        "cuisine": "coffee_shop;cake;bagel;sandwich;tea",
        "name:en": "Redback",
        "opening_hours": "Mo-Su 06:00-22:00"
      },
      "geometry": {
        "type": "Point",
        "coordinates": [
          112.6840715,
          -7.2806625
        ]
      },
      "id": "node/5237495322"
    },
    {
      "type": "Feature",
      "properties": {
        "@id": "node/5276657698",
        "addr:city": "Surabaya",
        "addr:postcode": "60227",
        "addr:street": "Jalan Boulevard Famili Selatan",
        "amenity": "cafe",
        "internet_access": "no",
        "name": "Tea Presso"
      },
      "geometry": {
        "type": "Point",
        "coordinates": [
          112.6760609,
          -7.2992134
        ]
      },
      "id": "node/5276657698"
    },
    {
      "type": "Feature",
      "properties": {
        "@id": "node/5295169645",
        "amenity": "cafe",
        "cuisine": "bakery",
        "description": "pâtisserie et bistrot",
        "name": "Sugabites"
      },
      "geometry": {
        "type": "Point",
        "coordinates": [
          112.6763329,
          -7.29408
        ]
      },
      "id": "node/5295169645"
    },
    {
      "type": "Feature",
      "properties": {
        "@id": "node/5295169646",
        "amenity": "cafe",
        "name": "TGC",
        "opening_hours": "Mo-Su 06:00-23:45"
      },
      "geometry": {
        "type": "Point",
        "coordinates": [
          112.6762902,
          -7.2939676
        ]
      },
      "id": "node/5295169646"
    },
    {
      "type": "Feature",
      "properties": {
        "@id": "node/5301723424",
        "amenity": "cafe",
        "name:en": "Starbucks"
      },
      "geometry": {
        "type": "Point",
        "coordinates": [
          112.7390643,
          -7.2625609
        ]
      },
      "id": "node/5301723424"
    },
    {
      "type": "Feature",
      "properties": {
        "@id": "node/5330637022",
        "addr:housenumber": "no 38",
        "addr:postcode": "60115",
        "addr:street": "Jalan Dharmahusada Indah II",
        "amenity": "cafe",
        "cuisine": "coffee_shop",
        "internet_access": "wlan",
        "name:en": "Warung danang",
        "opening_hours": "Mo-Sa 00:00-24:00",
        "phone": "+6285731894265",
        "website": "https://wifi.id/"
      },
      "geometry": {
        "type": "Point",
        "coordinates": [
          112.7758684,
          -7.2747419
        ]
      },
      "id": "node/5330637022"
    },
    {
      "type": "Feature",
      "properties": {
        "@id": "node/5354541741",
        "amenity": "cafe",
        "cuisine": "indonesian",
        "name": "Bird house",
        "opening_hours": "Mo-Su 12:00-22:00",
        "outdoor_seating": "yes",
        "website": "https://www.instagram.com/birdhousebistro/"
      },
      "geometry": {
        "type": "Point",
        "coordinates": [
          112.6762882,
          -7.2935947
        ]
      },
      "id": "node/5354541741"
    },
    {
      "type": "Feature",
      "properties": {
        "@id": "node/5381991209",
        "amenity": "cafe",
        "name": "Palms"
      },
      "geometry": {
        "type": "Point",
        "coordinates": [
          112.6670643,
          -7.2948712
        ]
      },
      "id": "node/5381991209"
    },
    {
      "type": "Feature",
      "properties": {
        "@id": "node/5497771740",
        "amenity": "cafe",
        "name": "Churrz"
      },
      "geometry": {
        "type": "Point",
        "coordinates": [
          112.6761595,
          -7.2939376
        ]
      },
      "id": "node/5497771740"
    },
    {
      "type": "Feature",
      "properties": {
        "@id": "node/5716380921",
        "amenity": "cafe",
        "name:de": "Foodcourt",
        "name:en": "Foodcourt"
      },
      "geometry": {
        "type": "Point",
        "coordinates": [
          112.7418023,
          -7.2741573
        ]
      },
      "id": "node/5716380921"
    },
    {
      "type": "Feature",
      "properties": {
        "@id": "node/5873197056",
        "amenity": "cafe",
        "brand": "Starbucks",
        "brand:wikidata": "Q37158",
        "brand:wikipedia": "en:Starbucks",
        "cuisine": "coffee_shop",
        "internet_access": "wlan",
        "internet_access:fee": "no",
        "name": "Starbucks",
        "official_name": "Starbucks Coffee",
        "opening_hours": "07:00-23:00",
        "operator": "PT Sari Coffee Indonesia",
        "outdoor_seating": "yes",
        "smoking": "outside",
        "takeaway": "yes",
        "wheelchair": "no"
      },
      "geometry": {
        "type": "Point",
        "coordinates": [
          112.7673519,
          -7.2797036
        ]
      },
      "id": "node/5873197056"
    },
    {
      "type": "Feature",
      "properties": {
        "@id": "node/5873197057",
        "amenity": "cafe",
        "brand": "Starbucks",
        "brand:wikidata": "Q37158",
        "brand:wikipedia": "en:Starbucks",
        "cuisine": "coffee_shop",
        "name": "Starbucks",
        "official_name": "Starbucks Coffee",
        "operator": "PT Sari Coffee Indonesia",
        "takeaway": "yes"
      },
      "geometry": {
        "type": "Point",
        "coordinates": [
          112.7394783,
          -7.2617762
        ]
      },
      "id": "node/5873197057"
    },
    {
      "type": "Feature",
      "properties": {
        "@id": "node/5873197058",
        "amenity": "cafe",
        "brand": "Starbucks",
        "brand:wikidata": "Q37158",
        "brand:wikipedia": "en:Starbucks",
        "cuisine": "coffee_shop",
        "name": "Starbucks",
        "official_name": "Starbucks Coffee",
        "operator": "PT Sari Coffee Indonesia",
        "takeaway": "yes"
      },
      "geometry": {
        "type": "Point",
        "coordinates": [
          112.7383465,
          -7.2612547
        ]
      },
      "id": "node/5873197058"
    },
    {
      "type": "Feature",
      "properties": {
        "@id": "node/5873197059",
        "amenity": "cafe",
        "brand": "Starbucks",
        "brand:wikidata": "Q37158",
        "brand:wikipedia": "en:Starbucks",
        "cuisine": "coffee_shop",
        "name": "Starbucks",
        "official_name": "Starbucks Coffee",
        "operator": "PT Sari Coffee Indonesia",
        "takeaway": "yes"
      },
      "geometry": {
        "type": "Point",
        "coordinates": [
          112.7392584,
          -7.2631864
        ]
      },
      "id": "node/5873197059"
    },
    {
      "type": "Feature",
      "properties": {
        "@id": "node/5873197060",
        "amenity": "cafe",
        "brand": "Starbucks",
        "brand:wikidata": "Q37158",
        "brand:wikipedia": "en:Starbucks",
        "cuisine": "coffee_shop",
        "name": "Starbucks",
        "official_name": "Starbucks Coffee",
        "operator": "PT Sari Coffee Indonesia",
        "takeaway": "yes"
      },
      "geometry": {
        "type": "Point",
        "coordinates": [
          112.7379978,
          -7.2622711
        ]
      },
      "id": "node/5873197060"
    },
    {
      "type": "Feature",
      "properties": {
        "@id": "node/5873197061",
        "amenity": "cafe",
        "brand": "Starbucks",
        "brand:wikidata": "Q37158",
        "brand:wikipedia": "en:Starbucks",
        "cuisine": "coffee_shop",
        "name": "Starbucks",
        "official_name": "Starbucks Coffee",
        "operator": "PT Sari Coffee Indonesia",
        "takeaway": "yes"
      },
      "geometry": {
        "type": "Point",
        "coordinates": [
          112.7301228,
          -7.2945388
        ]
      },
      "id": "node/5873197061"
    },
    {
      "type": "Feature",
      "properties": {
        "@id": "node/5873197062",
        "amenity": "cafe",
        "brand": "Starbucks",
        "brand:wikidata": "Q37158",
        "brand:wikipedia": "en:Starbucks",
        "cuisine": "coffee_shop",
        "name": "Starbucks",
        "official_name": "Starbucks Coffee",
        "operator": "PT Sari Coffee Indonesia",
        "takeaway": "yes"
      },
      "geometry": {
        "type": "Point",
        "coordinates": [
          112.805863,
          -7.2768993
        ]
      },
      "id": "node/5873197062"
    },
    {
      "type": "Feature",
      "properties": {
        "@id": "node/5897591816",
        "amenity": "cafe",
        "name": "Titik Kumpul"
      },
      "geometry": {
        "type": "Point",
        "coordinates": [
          112.7647984,
          -7.2779716
        ]
      },
      "id": "node/5897591816"
    },
    {
      "type": "Feature",
      "properties": {
        "@id": "node/5897591856",
        "amenity": "cafe",
        "name": "Rollaas"
      },
      "geometry": {
        "type": "Point",
        "coordinates": [
          112.7734619,
          -7.280853
        ]
      },
      "id": "node/5897591856"
    },
    {
      "type": "Feature",
      "properties": {
        "@id": "node/6123924347",
        "amenity": "cafe",
        "brand": "Maxx Coffee",
        "brand:wikidata": "Q124651563",
        "cuisine": "coffee_shop",
        "internet_access": "yes",
        "name": "Maxx Coffee",
        "takeaway": "yes"
      },
      "geometry": {
        "type": "Point",
        "coordinates": [
          112.7499001,
          -7.2619186
        ]
      },
      "id": "node/6123924347"
    },
    {
      "type": "Feature",
      "properties": {
        "@id": "node/6123924348",
        "amenity": "cafe",
        "internet_access": "yes",
        "name": "Excelso"
      },
      "geometry": {
        "type": "Point",
        "coordinates": [
          112.7497901,
          -7.2618108
        ]
      },
      "id": "node/6123924348"
    },
    {
      "type": "Feature",
      "properties": {
        "@id": "node/6123924349",
        "amenity": "cafe",
        "internet_access": "yes",
        "name": "Anomali Coffee"
      },
      "geometry": {
        "type": "Point",
        "coordinates": [
          112.750348,
          -7.2621593
        ]
      },
      "id": "node/6123924349"
    },
    {
      "type": "Feature",
      "properties": {
        "@id": "node/6123924350",
        "amenity": "cafe",
        "name": "Oh Gelato & Cafe"
      },
      "geometry": {
        "type": "Point",
        "coordinates": [
          112.7510521,
          -7.2604671
        ]
      },
      "id": "node/6123924350"
    },
    {
      "type": "Feature",
      "properties": {
        "@id": "node/6154038472",
        "amenity": "cafe",
        "name": "Renekopi"
      },
      "geometry": {
        "type": "Point",
        "coordinates": [
          112.7215186,
          -7.3087693
        ]
      },
      "id": "node/6154038472"
    },
    {
      "type": "Feature",
      "properties": {
        "@id": "node/6214815967",
        "amenity": "cafe",
        "brand": "Starbucks",
        "brand:wikidata": "Q37158",
        "brand:wikipedia": "en:Starbucks",
        "cuisine": "coffee_shop",
        "name": "Starbucks",
        "official_name": "Starbucks Coffee",
        "operator": "PT Sari Coffee Indonesia",
        "takeaway": "yes"
      },
      "geometry": {
        "type": "Point",
        "coordinates": [
          112.7406183,
          -7.2630241
        ]
      },
      "id": "node/6214815967"
    },
    {
      "type": "Feature",
      "properties": {
        "@id": "node/6214815968",
        "amenity": "cafe",
        "brand": "Starbucks",
        "brand:wikidata": "Q37158",
        "brand:wikipedia": "en:Starbucks",
        "cuisine": "coffee_shop",
        "name": "Starbucks",
        "official_name": "Starbucks Coffee",
        "operator": "PT Sari Coffee Indonesia",
        "takeaway": "yes"
      },
      "geometry": {
        "type": "Point",
        "coordinates": [
          112.7375364,
          -7.3388087
        ]
      },
      "id": "node/6214815968"
    },
    {
      "type": "Feature",
      "properties": {
        "@id": "node/6214815969",
        "amenity": "cafe",
        "brand": "Starbucks",
        "brand:wikidata": "Q37158",
        "brand:wikipedia": "en:Starbucks",
        "cuisine": "coffee_shop",
        "name": "Starbucks",
        "official_name": "Starbucks Coffee",
        "operator": "PT Sari Coffee Indonesia",
        "takeaway": "yes"
      },
      "geometry": {
        "type": "Point",
        "coordinates": [
          112.7485067,
          -7.2652191
        ]
      },
      "id": "node/6214815969"
    },
    {
      "type": "Feature",
      "properties": {
        "@id": "node/6214815970",
        "amenity": "cafe",
        "brand": "Starbucks",
        "brand:wikidata": "Q37158",
        "brand:wikipedia": "en:Starbucks",
        "cuisine": "coffee_shop",
        "name": "Starbucks",
        "official_name": "Starbucks Coffee",
        "operator": "PT Sari Coffee Indonesia",
        "takeaway": "yes"
      },
      "geometry": {
        "type": "Point",
        "coordinates": [
          112.7338484,
          -7.2556672
        ]
      },
      "id": "node/6214815970"
    },
    {
      "type": "Feature",
      "properties": {
        "@id": "node/6214815971",
        "amenity": "cafe",
        "brand": "Starbucks",
        "brand:wikidata": "Q37158",
        "brand:wikipedia": "en:Starbucks",
        "cuisine": "coffee_shop",
        "name": "Starbucks",
        "official_name": "Starbucks Coffee",
        "operator": "PT Sari Coffee Indonesia",
        "takeaway": "yes"
      },
      "geometry": {
        "type": "Point",
        "coordinates": [
          112.6617667,
          -7.2510215
        ]
      },
      "id": "node/6214815971"
    },
    {
      "type": "Feature",
      "properties": {
        "@id": "node/6296236163",
        "amenity": "cafe",
        "brand": "Starbucks",
        "brand:wikidata": "Q37158",
        "brand:wikipedia": "en:Starbucks",
        "cuisine": "coffee_shop",
        "name": "Starbucks",
        "official_name": "Starbucks Coffee",
        "operator": "PT Sari Coffee Indonesia",
        "takeaway": "yes"
      },
      "geometry": {
        "type": "Point",
        "coordinates": [
          112.7810472,
          -7.3144389
        ]
      },
      "id": "node/6296236163"
    },
    {
      "type": "Feature",
      "properties": {
        "@id": "node/6358934717",
        "amenity": "cafe",
        "cuisine": "Meatball_soup;snack",
        "name": "Bakso Sumberejo",
        "outdoor_seating": "yes",
        "smoking": "outside",
        "takeaway": "yes"
      },
      "geometry": {
        "type": "Point",
        "coordinates": [
          112.6071113,
          -7.2277435
        ]
      },
      "id": "node/6358934717"
    },
    {
      "type": "Feature",
      "properties": {
        "@id": "node/6363976422",
        "addr:city": "Klampis Ngasem, Sukolilo, Surabaya",
        "addr:postcode": "60117",
        "addr:street": "Jalan Arief Rahman Hakim",
        "amenity": "cafe",
        "cuisine": "coffee_shop",
        "name": "Warung Polisi (Warpol)",
        "outdoor_seating": "yes",
        "smoking": "yes"
      },
      "geometry": {
        "type": "Point",
        "coordinates": [
          112.7756865,
          -7.2894573
        ]
      },
      "id": "node/6363976422"
    },
    {
      "type": "Feature",
      "properties": {
        "@id": "node/6397255490",
        "addr:city": "Menur Pumpungan, Sukolilo, Surabaya, East Java",
        "addr:housenumber": "No.33",
        "addr:postcode": "60118",
        "addr:street": "Jalan Menur Pumpungan",
        "amenity": "cafe",
        "cuisine": "coffee_shop",
        "name": "coffy toffy manyar",
        "opening_hours": "Mo-Su 09:00-21:00",
        "outdoor_seating": "yes"
      },
      "geometry": {
        "type": "Point",
        "coordinates": [
          112.763134,
          -7.2892326
        ]
      },
      "id": "node/6397255490"
    },
    {
      "type": "Feature",
      "properties": {
        "@id": "node/6398529327",
        "amenity": "cafe"
      },
      "geometry": {
        "type": "Point",
        "coordinates": [
          112.7631254,
          -7.289212
        ]
      },
      "id": "node/6398529327"
    },
    {
      "type": "Feature",
      "properties": {
        "@id": "node/6409346562",
        "amenity": "cafe",
        "brand": "Starbucks",
        "brand:wikidata": "Q37158",
        "brand:wikipedia": "en:Starbucks",
        "cuisine": "coffee_shop",
        "name": "Starbucks",
        "official_name": "Starbucks Coffee",
        "operator": "PT Sari Coffee Indonesia",
        "takeaway": "yes"
      },
      "geometry": {
        "type": "Point",
        "coordinates": [
          112.7808205,
          -7.2760014
        ]
      },
      "id": "node/6409346562"
    },
    {
      "type": "Feature",
      "properties": {
        "@id": "node/6495308533",
        "amenity": "cafe",
        "name": "Janji Jiwa"
      },
      "geometry": {
        "type": "Point",
        "coordinates": [
          112.7562516,
          -7.2706004
        ]
      },
      "id": "node/6495308533"
    },
    {
      "type": "Feature",
      "properties": {
        "@id": "node/6621178653",
        "addr:city": "Surabaya",
        "addr:housenumber": "Unit 22-23",
        "addr:postcode": "60261",
        "amenity": "cafe",
        "brand": "The Coffee Bean & Tea Leaf",
        "brand:wikidata": "Q1141384",
        "brand:wikipedia": "en:The Coffee Bean & Tea Leaf",
        "cuisine": "coffee_shop",
        "name": "The Coffee Bean & Tea Leaf",
        "takeaway": "yes"
      },
      "geometry": {
        "type": "Point",
        "coordinates": [
          112.7381244,
          -7.2625788
        ]
      },
      "id": "node/6621178653"
    },
    {
      "type": "Feature",
      "properties": {
        "@id": "node/6681993566",
        "addr:street": "Jalan Opak",
        "air_conditioning": "yes",
        "alt_name": "Thirty Three Brew",
        "amenity": "cafe",
        "bar": "yes",
        "internet_access": "wlan",
        "internet_access:fee": "no",
        "name": "Thirty3 Brew",
        "opening_hours": "Mo-Su 10:00-23:00",
        "outdoor_seating": "yes"
      },
      "geometry": {
        "type": "Point",
        "coordinates": [
          112.7327551,
          -7.2861002
        ]
      },
      "id": "node/6681993566"
    },
    {
      "type": "Feature",
      "properties": {
        "@id": "node/6681993571",
        "amenity": "cafe",
        "name": "Seventies Coffee"
      },
      "geometry": {
        "type": "Point",
        "coordinates": [
          112.7329429,
          -7.2856692
        ]
      },
      "id": "node/6681993571"
    },
    {
      "type": "Feature",
      "properties": {
        "@id": "node/6681993573",
        "air_conditioning": "yes",
        "amenity": "cafe",
        "bar": "yes",
        "name": "Locaāhands",
        "opening_hours": "Mo-Su 08:00-22:00",
        "outdoor_seating": "yes"
      },
      "geometry": {
        "type": "Point",
        "coordinates": [
          112.7332299,
          -7.2871804
        ]
      },
      "id": "node/6681993573"
    },
    {
      "type": "Feature",
      "properties": {
        "@id": "node/6806679940",
        "amenity": "cafe",
        "internet_access": "yes",
        "name": "Diskuupi",
        "outdoor_seating": "yes"
      },
      "geometry": {
        "type": "Point",
        "coordinates": [
          112.7562049,
          -7.2725287
        ]
      },
      "id": "node/6806679940"
    },
    {
      "type": "Feature",
      "properties": {
        "@id": "node/6806679941",
        "amenity": "cafe",
        "name": "Hi Coffee",
        "outdoor_seating": "yes"
      },
      "geometry": {
        "type": "Point",
        "coordinates": [
          112.7562049,
          -7.2726524
        ]
      },
      "id": "node/6806679941"
    },
    {
      "type": "Feature",
      "properties": {
        "@id": "node/6806679945",
        "amenity": "cafe",
        "name": "Lain Hati",
        "outdoor_seating": "yes"
      },
      "geometry": {
        "type": "Point",
        "coordinates": [
          112.7561539,
          -7.2737805
        ]
      },
      "id": "node/6806679945"
    },
    {
      "type": "Feature",
      "properties": {
        "@id": "node/6806679946",
        "amenity": "cafe",
        "name": "Pukul Satu",
        "outdoor_seating": "yes"
      },
      "geometry": {
        "type": "Point",
        "coordinates": [
          112.7557891,
          -7.2766819
        ]
      },
      "id": "node/6806679946"
    },
    {
      "type": "Feature",
      "properties": {
        "@id": "node/6806679947",
        "amenity": "cafe",
        "name": "Foresthree",
        "outdoor_seating": "yes"
      },
      "geometry": {
        "type": "Point",
        "coordinates": [
          112.754558,
          -7.277806
        ]
      },
      "id": "node/6806679947"
    },
    {
      "type": "Feature",
      "properties": {
        "@id": "node/6806679950",
        "amenity": "cafe",
        "name": "Kopi Yor",
        "outdoor_seating": "yes"
      },
      "geometry": {
        "type": "Point",
        "coordinates": [
          112.7608087,
          -7.2717451
        ]
      },
      "id": "node/6806679950"
    },
    {
      "type": "Feature",
      "properties": {
        "@id": "node/6806679951",
        "amenity": "cafe",
        "name": "Awal Cerita",
        "outdoor_seating": "yes"
      },
      "geometry": {
        "type": "Point",
        "coordinates": [
          112.7608578,
          -7.2710483
        ]
      },
      "id": "node/6806679951"
    },
    {
      "type": "Feature",
      "properties": {
        "@id": "node/6811538254",
        "addr:city": "Surabaya",
        "addr:housenumber": "38",
        "addr:postcode": "60118",
        "addr:street": "Jalan Nginden Semolo",
        "amenity": "cafe",
        "cuisine": "coffee_shop;coffee;drinks",
        "internet_access": "yes",
        "name": "Diskuupi 101",
        "outdoor_seating": "yes",
        "reservation": "yes"
      },
      "geometry": {
        "type": "Point",
        "coordinates": [
          112.7656827,
          -7.299809
        ]
      },
      "id": "node/6811538254"
    },
    {
      "type": "Feature",
      "properties": {
        "@id": "node/6862762515",
        "amenity": "cafe",
        "name": "Katalokopi"
      },
      "geometry": {
        "type": "Point",
        "coordinates": [
          112.7561009,
          -7.2743511
        ]
      },
      "id": "node/6862762515"
    },
    {
      "type": "Feature",
      "properties": {
        "@id": "node/6960986586",
        "amenity": "cafe",
        "name": "Warkop Stadion",
        "opening_hours": "24/7"
      },
      "geometry": {
        "type": "Point",
        "coordinates": [
          112.7228236,
          -7.3291909
        ]
      },
      "id": "node/6960986586"
    },
    {
      "type": "Feature",
      "properties": {
        "@id": "node/7111723185",
        "addr:housenumber": "250",
        "addr:postcode": "60151",
        "addr:street": "Jalan KH Mas Mansyur",
        "amenity": "cafe",
        "cuisine": "burger;cake;fish;kebab;coffee_shop;arab",
        "internet_access": "wlan",
        "name": "Mokha Eatery",
        "name:en": "Mokha Eatery",
        "opening_hours": "Mo-Su 09:30-21:30"
      },
      "geometry": {
        "type": "Point",
        "coordinates": [
          112.7410538,
          -7.2262097
        ]
      },
      "id": "node/7111723185"
    },
    {
      "type": "Feature",
      "properties": {
        "@id": "node/7113437686",
        "addr:street": "Jalan Pandegiling",
        "amenity": "cafe",
        "internet_access": "wlan",
        "name:en": "Warkop Wali",
        "opening_hours": "Mo-Sa 06:00-18:00"
      },
      "geometry": {
        "type": "Point",
        "coordinates": [
          112.7405096,
          -7.2773182
        ]
      },
      "id": "node/7113437686"
    },
    {
      "type": "Feature",
      "properties": {
        "@id": "node/7113750385",
        "addr:housenumber": "73G",
        "addr:street": "Jalan Embong Malang",
        "amenity": "cafe",
        "cuisine": "coffee_shop",
        "internet_access": "wlan",
        "name:en": "Kopi Kota",
        "opening_hours": "Mo-Su 11:00-21:00"
      },
      "geometry": {
        "type": "Point",
        "coordinates": [
          112.7356714,
          -7.2597168
        ]
      },
      "id": "node/7113750385"
    },
    {
      "type": "Feature",
      "properties": {
        "@id": "node/7116217285",
        "addr:street": "Jalan Dinoyo Baru",
        "amenity": "cafe",
        "cuisine": "friture;coffee_shop;local",
        "name:en": "Warkop Cak Man",
        "opening_hours": "Mo-Su 05:00-18:00"
      },
      "geometry": {
        "type": "Point",
        "coordinates": [
          112.7434771,
          -7.285995
        ]
      },
      "id": "node/7116217285"
    },
    {
      "type": "Feature",
      "properties": {
        "@id": "node/7116217485",
        "addr:housenumber": "19",
        "addr:postcode": "60264",
        "addr:street": "Jalan Imam Bonjol",
        "amenity": "cafe",
        "cuisine": "friture;cake;donut;coffee_shop",
        "name:en": "Warkop Koramil - Pak Tono",
        "opening_hours": "Mo-Su 06:00-16:00",
        "operator": "Tono"
      },
      "geometry": {
        "type": "Point",
        "coordinates": [
          112.7355799,
          -7.2774065
        ]
      },
      "id": "node/7116217485"
    },
    {
      "type": "Feature",
      "properties": {
        "@id": "node/7116279985",
        "addr:street": "Jalan Pecindilan II",
        "amenity": "cafe",
        "cuisine": "friture;coffee_shop",
        "name:en": "Warkop Pojok Pasar Pecindilan",
        "opening_hours": "Mo-Su 05:00-16:00"
      },
      "geometry": {
        "type": "Point",
        "coordinates": [
          112.7492283,
          -7.2473764
        ]
      },
      "id": "node/7116279985"
    },
    {
      "type": "Feature",
      "properties": {
        "@id": "node/7116874685",
        "addr:street": "Jalan Imam Bonjol",
        "amenity": "cafe",
        "cuisine": "indonesian",
        "name:en": "Warung Pojok Rawon Lodeh Bali",
        "opening_hours": "Mo-Su 19:00-00:00"
      },
      "geometry": {
        "type": "Point",
        "coordinates": [
          112.7358243,
          -7.276248
        ]
      },
      "id": "node/7116874685"
    },
    {
      "type": "Feature",
      "properties": {
        "@id": "node/7118511485",
        "addr:street": "Jalan Embong Sawo",
        "amenity": "cafe",
        "cuisine": "coffee_shop",
        "internet_access": "wlan",
        "name:en": "Kedai Kopi Simple",
        "opening_hours": "Mo-Fr 07:00-16:00"
      },
      "geometry": {
        "type": "Point",
        "coordinates": [
          112.7426006,
          -7.2667722
        ]
      },
      "id": "node/7118511485"
    },
    {
      "type": "Feature",
      "properties": {
        "@id": "node/7118528786",
        "addr:street": "Jalan Keputran",
        "amenity": "cafe",
        "cuisine": "coffee_shop",
        "name:en": "Warkop SJDW",
        "opening_hours": "24/7"
      },
      "geometry": {
        "type": "Point",
        "coordinates": [
          112.7425464,
          -7.2746447
        ]
      },
      "id": "node/7118528786"
    },
    {
      "type": "Feature",
      "properties": {
        "@id": "node/7118536585",
        "addr:street": "Jalan Argopuro",
        "amenity": "cafe",
        "cuisine": "coffee_shop",
        "name:en": "Warkop Cak Man",
        "opening_hours": "Mo-Su 06:00-21:00"
      },
      "geometry": {
        "type": "Point",
        "coordinates": [
          112.7257918,
          -7.2584638
        ]
      },
      "id": "node/7118536585"
    },
    {
      "type": "Feature",
      "properties": {
        "@id": "node/7118537685",
        "addr:street": "Jalan Jenderal Basuki Rachmat",
        "amenity": "cafe",
        "cuisine": "coffee_shop",
        "name:en": "Warkop Cak Min",
        "opening_hours": "Mo-Fr 10:00-00:00"
      },
      "geometry": {
        "type": "Point",
        "coordinates": [
          112.7410945,
          -7.2723849
        ]
      },
      "id": "node/7118537685"
    },
    {
      "type": "Feature",
      "properties": {
        "@id": "node/7118541285",
        "addr:street": "Jalan Lemah Putro III",
        "amenity": "cafe",
        "name:en": "Warkop Mbak Mar",
        "opening_hours": "Mo-Sa 06:00-18:00"
      },
      "geometry": {
        "type": "Point",
        "coordinates": [
          112.7426857,
          -7.2716697
        ]
      },
      "id": "node/7118541285"
    },
    {
      "type": "Feature",
      "properties": {
        "@id": "node/7118541286",
        "addr:street": "Kayun",
        "amenity": "cafe",
        "cuisine": "coffee_shop",
        "name:en": "Warkop PakDe Yanto",
        "opening_hours": "Mo-Sa 06:00-18:00"
      },
      "geometry": {
        "type": "Point",
        "coordinates": [
          112.7437324,
          -7.2735094
        ]
      },
      "id": "node/7118541286"
    },
    {
      "type": "Feature",
      "properties": {
        "@id": "node/7118551585",
        "addr:street": "Jalan Jenderal Urip Sumoharjo",
        "amenity": "cafe",
        "name:en": "Warkop Pojok",
        "opening_hours": "Mo-Su 06:00-21:00"
      },
      "geometry": {
        "type": "Point",
        "coordinates": [
          112.7411753,
          -7.2771988
        ]
      },
      "id": "node/7118551585"
    },
    {
      "type": "Feature",
      "properties": {
        "@id": "node/7118651185",
        "addr:housenumber": "7",
        "addr:street": "Jalan Simpang Dukuh",
        "amenity": "cafe",
        "cuisine": "deli;tea;cake;asian;beef_bowl;coffee_shop",
        "name:en": "Warkop Pak No Simpang Dukuh",
        "opening_hours": "Mo-Su 06:00-18:00"
      },
      "geometry": {
        "type": "Point",
        "coordinates": [
          112.7419599,
          -7.2620896
        ]
      },
      "id": "node/7118651185"
    },
    {
      "type": "Feature",
      "properties": {
        "@id": "node/7118681890",
        "addr:street": "Jalan Genteng Bandar Lor",
        "amenity": "cafe",
        "cuisine": "coffee_shop",
        "name:en": "Warkop Pak Imam",
        "opening_hours": "Mo-Sa 06:00-15:00"
      },
      "geometry": {
        "type": "Point",
        "coordinates": [
          112.7420994,
          -7.2591134
        ]
      },
      "id": "node/7118681890"
    },
    {
      "type": "Feature",
      "properties": {
        "@id": "node/7118694885",
        "addr:street": "Jalan Genteng Besar",
        "amenity": "cafe",
        "cuisine": "coffee_shop",
        "name:en": "Warkop Dewo",
        "opening_hours": "Mo-Su 06:00-18:00"
      },
      "geometry": {
        "type": "Point",
        "coordinates": [
          112.7410212,
          -7.2586829
        ]
      },
      "id": "node/7118694885"
    },
    {
      "type": "Feature",
      "properties": {
        "@id": "node/7118937485",
        "addr:street": "Jalan Dinoyo",
        "amenity": "cafe",
        "cuisine": "coffee_shop",
        "name:en": "Warkop WK",
        "opening_hours": "24/7"
      },
      "geometry": {
        "type": "Point",
        "coordinates": [
          112.7434136,
          -7.27846
        ]
      },
      "id": "node/7118937485"
    },
    {
      "type": "Feature",
      "properties": {
        "@id": "node/7119524187",
        "addr:street": "Jalan Bintoro",
        "amenity": "cafe",
        "cuisine": "tea;friture;diner;cake;coffee_shop;local",
        "name:en": "Warung Cak Mis",
        "opening_hours": "Mo-Su 15:00-00:00"
      },
      "geometry": {
        "type": "Point",
        "coordinates": [
          112.740459,
          -7.2864466
        ]
      },
      "id": "node/7119524187"
    },
    {
      "type": "Feature",
      "properties": {
        "@id": "node/7120599687",
        "addr:housenumber": "98",
        "addr:street": "Jalan Sidotopo Kidul",
        "amenity": "cafe",
        "name:en": "Giras 98",
        "opening_hours": "Mo-Su 05:00-18:00"
      },
      "geometry": {
        "type": "Point",
        "coordinates": [
          112.7511565,
          -7.2306144
        ]
      },
      "id": "node/7120599687"
    },
    {
      "type": "Feature",
      "properties": {
        "@id": "node/7120670685",
        "addr:housenumber": "46",
        "addr:street": "Jalan KH Mas Mansyur I",
        "amenity": "cafe",
        "cuisine": "friture;cake;coffee_shop",
        "internet_access": "wlan",
        "name:en": "Warkop Erick 46",
        "opening_hours": "24/7"
      },
      "geometry": {
        "type": "Point",
        "coordinates": [
          112.7407872,
          -7.2271615
        ]
      },
      "id": "node/7120670685"
    },
    {
      "type": "Feature",
      "properties": {
        "@id": "node/7120693486",
        "addr:street": "Jalan Pabean Koelon 5",
        "amenity": "cafe",
        "cuisine": "friture;cake;coffee_shop",
        "name:en": "Warkop Rempah",
        "opening_hours": "Mo-Sa 07:00-15:00"
      },
      "geometry": {
        "type": "Point",
        "coordinates": [
          112.7401755,
          -7.2332537
        ]
      },
      "id": "node/7120693486"
    },
    {
      "type": "Feature",
      "properties": {
        "@id": "node/7120720686",
        "addr:street": "Jalan KH Mas Mansyur",
        "amenity": "cafe",
        "cuisine": "friture;donut;coffee_shop",
        "name:en": "Warkop Keliling Cak Muhari",
        "opening_hours": "Mo-Su 06:00-11:00",
        "operator": "Muhari"
      },
      "geometry": {
        "type": "Point",
        "coordinates": [
          112.741118,
          -7.2327324
        ]
      },
      "id": "node/7120720686"
    },
    {
      "type": "Feature",
      "properties": {
        "@id": "node/7120741785",
        "addr:street": "Jalan Gambir",
        "amenity": "cafe",
        "cuisine": "coffee_shop",
        "name:en": "Warkop Cak Ran",
        "opening_hours": "Mo-Su 12:00-00:00"
      },
      "geometry": {
        "type": "Point",
        "coordinates": [
          112.7396881,
          -7.2342577
        ]
      },
      "id": "node/7120741785"
    },
    {
      "type": "Feature",
      "properties": {
        "@id": "node/7120742785",
        "addr:street": "Jalan Songoyudan",
        "amenity": "cafe",
        "cuisine": "coffee_shop",
        "name:en": "Warkop Elita",
        "opening_hours": "Mo-Sa 07:00-16:00",
        "operator": "Elita"
      },
      "geometry": {
        "type": "Point",
        "coordinates": [
          112.7416472,
          -7.2356956
        ]
      },
      "id": "node/7120742785"
    },
    {
      "type": "Feature",
      "properties": {
        "@id": "node/7120746985",
        "addr:street": "Jalan Pabean Utara",
        "amenity": "cafe",
        "cuisine": "friture;cake;curry;coffee_shop",
        "name:en": "Warkop Maimunah",
        "opening_hours": "24/7",
        "operator": "Maimunah"
      },
      "geometry": {
        "type": "Point",
        "coordinates": [
          112.7410464,
          -7.2350201
        ]
      },
      "id": "node/7120746985"
    },
    {
      "type": "Feature",
      "properties": {
        "@id": "node/7120970085",
        "addr:street": "Ketapang III",
        "amenity": "cafe",
        "cuisine": "coffee_shop",
        "name:en": "Warkop Cak Syaiful",
        "opening_hours": "Mo-Su 06:00-16:00",
        "operator": "Syaiful"
      },
      "geometry": {
        "type": "Point",
        "coordinates": [
          112.740987,
          -7.2342626
        ]
      },
      "id": "node/7120970085"
    },
    {
      "type": "Feature",
      "properties": {
        "@id": "node/7121027485",
        "addr:housenumber": "10",
        "addr:street": "Jalan Kertopaten",
        "amenity": "cafe",
        "cuisine": "coffee_shop",
        "internet_access": "wlan",
        "name:en": "Warkop Ertiga",
        "opening_hours": "24/7"
      },
      "geometry": {
        "type": "Point",
        "coordinates": [
          112.745857,
          -7.2347912
        ]
      },
      "id": "node/7121027485"
    },
    {
      "type": "Feature",
      "properties": {
        "@id": "node/7121430685",
        "addr:housenumber": "86",
        "addr:street": "Jalan Kapasan",
        "amenity": "cafe",
        "cuisine": "coffee_shop",
        "name:en": "Warkop Cak Hadi",
        "opening_hours": "Mo-Su 06:00-16:00"
      },
      "geometry": {
        "type": "Point",
        "coordinates": [
          112.7502333,
          -7.2398563
        ]
      },
      "id": "node/7121430685"
    },
    {
      "type": "Feature",
      "properties": {
        "@id": "node/7123664986",
        "addr:street": "Jalan Brawijaya",
        "amenity": "cafe",
        "cuisine": "coffee_shop",
        "name:en": "Warkop Sis",
        "opening_hours": "Mo-Su 05:00-15:00",
        "operator": "Sis"
      },
      "geometry": {
        "type": "Point",
        "coordinates": [
          112.7254069,
          -7.2945975
        ]
      },
      "id": "node/7123664986"
    },
    {
      "type": "Feature",
      "properties": {
        "@id": "node/7123677288",
        "addr:street": "Jalan Raya Wiyung",
        "amenity": "cafe",
        "cuisine": "coffee_shop",
        "name:en": "Giras Gresik",
        "opening_hours": "Mo-Su 05:00-15:00"
      },
      "geometry": {
        "type": "Point",
        "coordinates": [
          112.6941946,
          -7.3141168
        ]
      },
      "id": "node/7123677288"
    },
    {
      "type": "Feature",
      "properties": {
        "@id": "node/7123730485",
        "addr:housenumber": "64",
        "addr:street": "Jalan Trunojoyo",
        "amenity": "cafe",
        "cuisine": "coffee_shop",
        "name:en": "Warkop Halik",
        "opening_hours": "Mo-Sa 10:00-18:00",
        "operator": "Halik"
      },
      "geometry": {
        "type": "Point",
        "coordinates": [
          112.7342181,
          -7.2833698
        ]
      },
      "id": "node/7123730485"
    },
    {
      "type": "Feature",
      "properties": {
        "@id": "node/7123743685",
        "addr:street": "Jalan Lamongan",
        "amenity": "cafe",
        "cuisine": "coffee_shop",
        "name:en": "Warkop Dilla",
        "opening_hours": "Mo-Su 06:00-21:00",
        "operator": "Dilla"
      },
      "geometry": {
        "type": "Point",
        "coordinates": [
          112.7309717,
          -7.2491726
        ]
      },
      "id": "node/7123743685"
    },
    {
      "type": "Feature",
      "properties": {
        "@id": "node/7123793185",
        "addr:street": "Jalan Walikota Mustajab",
        "amenity": "cafe",
        "cuisine": "coffee_shop",
        "name:en": "Warjo Pak Pur",
        "opening_hours": "Mo-Sa 06:00-15:00",
        "operator": "Pur"
      },
      "geometry": {
        "type": "Point",
        "coordinates": [
          112.7449068,
          -7.2602861
        ]
      },
      "id": "node/7123793185"
    },
    {
      "type": "Feature",
      "properties": {
        "@id": "node/7123820385",
        "addr:street": "Jalan Jaksa Agung Suprapto",
        "amenity": "cafe",
        "cuisine": "coffee_shop",
        "name:en": "Warkop Ardi",
        "opening_hours": "Mo-Su 06:00-16:00",
        "operator": "Ardi"
      },
      "geometry": {
        "type": "Point",
        "coordinates": [
          112.7472311,
          -7.255278
        ]
      },
      "id": "node/7123820385"
    },
    {
      "type": "Feature",
      "properties": {
        "@id": "node/7125233785",
        "addr:street": "Jalan Raya Menur",
        "amenity": "cafe",
        "cuisine": "coffee_shop",
        "name:en": "Warkop Ramonez"
      },
      "geometry": {
        "type": "Point",
        "coordinates": [
          112.7621547,
          -7.2772632
        ]
      },
      "id": "node/7125233785"
    },
    {
      "type": "Feature",
      "properties": {
        "@id": "node/7125258886",
        "addr:housenumber": "19",
        "addr:street": "Pacar Keling VII",
        "amenity": "cafe",
        "cuisine": "coffee_shop",
        "diet:vegetarian": "yes",
        "name:en": "Warkop Pak No",
        "opening_hours": "Mo-Su 06:00-12:00",
        "operator": "Sundari & Pak No"
      },
      "geometry": {
        "type": "Point",
        "coordinates": [
          112.7590477,
          -7.2593538
        ]
      },
      "id": "node/7125258886"
    },
    {
      "type": "Feature",
      "properties": {
        "@id": "node/7125275785",
        "addr:street": "Jalan Pacarkeling Gang V",
        "amenity": "cafe",
        "cuisine": "coffee_shop",
        "diet:vegetarian": "yes",
        "name:en": "Warkop & Nasi Pecel Sederhana",
        "opening_hours": "Mo-Su 05:00-12:00",
        "operator": "Mak Ni"
      },
      "geometry": {
        "type": "Point",
        "coordinates": [
          112.7591347,
          -7.2594028
        ]
      },
      "id": "node/7125275785"
    },
    {
      "type": "Feature",
      "properties": {
        "@id": "node/7126114385",
        "addr:street": "Jalan Kebalen Timur",
        "amenity": "cafe",
        "cuisine": "tea;friture;coffee_shop",
        "name:en": "Warkop Bahagia",
        "opening_hours": "Mo-Su 06:00-16:00"
      },
      "geometry": {
        "type": "Point",
        "coordinates": [
          112.7357683,
          -7.2284246
        ]
      },
      "id": "node/7126114385"
    },
    {
      "type": "Feature",
      "properties": {
        "@id": "node/7127411885",
        "addr:housenumber": "2b",
        "addr:street": "Jalan Tambak Arum III",
        "amenity": "cafe",
        "cuisine": "coffee_shop",
        "name:en": "Warkop Pak Ri",
        "opening_hours": "Mo-Su 07:00-16:00"
      },
      "geometry": {
        "type": "Point",
        "coordinates": [
          112.7575363,
          -7.2479833
        ]
      },
      "id": "node/7127411885"
    },
    {
      "type": "Feature",
      "properties": {
        "@id": "node/7127632386",
        "addr:housenumber": "51",
        "addr:street": "Jalan Ngaglik",
        "amenity": "cafe",
        "cuisine": "friture;coffee_shop",
        "name:en": "Warkop Yani",
        "opening_hours": "Mo-Su 06:00-18:00",
        "operator": "Ibu Yani"
      },
      "geometry": {
        "type": "Point",
        "coordinates": [
          112.7535689,
          -7.2490873
        ]
      },
      "id": "node/7127632386"
    },
    {
      "type": "Feature",
      "properties": {
        "@id": "node/7127639686",
        "addr:street": "Jalan Teluk Betung",
        "amenity": "cafe",
        "cuisine": "tea;friture;coffee_shop",
        "name:en": "Warkop Pojok",
        "opening_hours": "Mo-Sa 06:00-16:00"
      },
      "geometry": {
        "type": "Point",
        "coordinates": [
          112.7333727,
          -7.213514
        ]
      },
      "id": "node/7127639686"
    },
    {
      "type": "Feature",
      "properties": {
        "@id": "node/7127669786",
        "addr:street": "Jalan Juwet",
        "amenity": "cafe",
        "cuisine": "coffee_shop",
        "name:en": "Warkop Cak Arifin",
        "opening_hours": "Mo-Su 06:00-17:00"
      },
      "geometry": {
        "type": "Point",
        "coordinates": [
          112.7550641,
          -7.2513154
        ]
      },
      "id": "node/7127669786"
    },
    {
      "type": "Feature",
      "properties": {
        "@id": "node/7128474688",
        "addr:housenumber": "33",
        "addr:street": "Jalan Cimanuk",
        "amenity": "cafe",
        "cuisine": "friture;coffee_shop",
        "internet_access": "wlan",
        "name:en": "Warkop Tulungagung",
        "opening_hours": "24/7"
      },
      "geometry": {
        "type": "Point",
        "coordinates": [
          112.7379627,
          -7.2912056
        ]
      },
      "id": "node/7128474688"
    },
    {
      "type": "Feature",
      "properties": {
        "@id": "node/7128509285",
        "addr:housenumber": "35",
        "addr:street": "Jalan Cimanuk",
        "amenity": "cafe",
        "cuisine": "friture;coffee_shop",
        "name:en": "Warkop Sewelas",
        "opening_hours": "Mo-Su 08:00-17:00"
      },
      "geometry": {
        "type": "Point",
        "coordinates": [
          112.7379973,
          -7.2913481
        ]
      },
      "id": "node/7128509285"
    },
    {
      "type": "Feature",
      "properties": {
        "@id": "node/7129729385",
        "addr:street": "Jalan Manukan Tama",
        "amenity": "cafe",
        "cuisine": "coffee_shop",
        "name:en": "Warkop Punjul Roso"
      },
      "geometry": {
        "type": "Point",
        "coordinates": [
          112.6671234,
          -7.2628776
        ]
      },
      "id": "node/7129729385"
    },
    {
      "type": "Feature",
      "properties": {
        "@id": "node/7129737185",
        "addr:street": "Jalan Balongsari Blok 3",
        "amenity": "cafe",
        "cuisine": "coffee_shop",
        "internet_access": "wlan",
        "name:en": "Warkop Pojok",
        "opening_hours": "24/7"
      },
      "geometry": {
        "type": "Point",
        "coordinates": [
          112.6784795,
          -7.2595463
        ]
      },
      "id": "node/7129737185"
    },
    {
      "type": "Feature",
      "properties": {
        "@id": "node/7129752585",
        "addr:street": "Jalan Balongsari Blok 3",
        "amenity": "cafe",
        "cuisine": "coffee_shop",
        "internet_access": "wlan",
        "name:en": "Giras 18"
      },
      "geometry": {
        "type": "Point",
        "coordinates": [
          112.6793737,
          -7.2597221
        ]
      },
      "id": "node/7129752585"
    },
    {
      "type": "Feature",
      "properties": {
        "@id": "node/7129752685",
        "addr:street": "Jalan Balongsari Blok 3",
        "amenity": "cafe",
        "cuisine": "coffee_shop",
        "internet_access": "wlan",
        "name:en": "Warkop CS"
      },
      "geometry": {
        "type": "Point",
        "coordinates": [
          112.6794537,
          -7.2597507
        ]
      },
      "id": "node/7129752685"
    },
    {
      "type": "Feature",
      "properties": {
        "@id": "node/7130137889",
        "addr:street": "Jalan Pandegiling",
        "amenity": "cafe",
        "cuisine": "coffee_shop",
        "internet_access": "wlan",
        "name:en": "Warkop Yoyok"
      },
      "geometry": {
        "type": "Point",
        "coordinates": [
          112.7352458,
          -7.2759233
        ]
      },
      "id": "node/7130137889"
    },
    {
      "type": "Feature",
      "properties": {
        "@id": "node/7132301585",
        "addr:housenumber": "120",
        "addr:street": "Jalan Tenggilis Mejoyo",
        "amenity": "cafe",
        "cuisine": "friture;coffee_shop",
        "name:en": "Warkop Gorip",
        "opening_hours": "Mo-Su 21:00-09:00",
        "operator": "Gorip & Umi"
      },
      "geometry": {
        "type": "Point",
        "coordinates": [
          112.7577787,
          -7.3205017
        ]
      },
      "id": "node/7132301585"
    },
    {
      "type": "Feature",
      "properties": {
        "@id": "node/7132325185",
        "addr:housenumber": "2",
        "addr:street": "Jalan Rungkut Asri Utara II",
        "amenity": "cafe",
        "cuisine": "coffee_shop",
        "internet_access": "wlan",
        "name:en": "Warkop Anugrah",
        "opening_hours": "Mo-Su 06:00-18:00"
      },
      "geometry": {
        "type": "Point",
        "coordinates": [
          112.7712258,
          -7.3233379
        ]
      },
      "id": "node/7132325185"
    },
    {
      "type": "Feature",
      "properties": {
        "@id": "node/7132340585",
        "addr:street": "Jalan Rungkut Asri Utara II",
        "amenity": "cafe",
        "cuisine": "friture;coffee_shop",
        "name:en": "Warkop Pojok Pasar Soponyono",
        "opening_hours": "Mo-Su 05:00-18:00"
      },
      "geometry": {
        "type": "Point",
        "coordinates": [
          112.7713442,
          -7.3232086
        ]
      },
      "id": "node/7132340585"
    },
    {
      "type": "Feature",
      "properties": {
        "@id": "node/7132389485",
        "addr:housenumber": "21",
        "addr:street": "Jalan Jemursari",
        "amenity": "cafe",
        "cuisine": "friture;coffee_shop",
        "name:en": "Kopi Selir"
      },
      "geometry": {
        "type": "Point",
        "coordinates": [
          112.7606838,
          -7.3079327
        ]
      },
      "id": "node/7132389485"
    },
    {
      "type": "Feature",
      "properties": {
        "@id": "node/7132454786",
        "addr:street": "Jalan Stasiun Wonokromo",
        "amenity": "cafe",
        "cuisine": "friture;cake;donut;coffee_shop",
        "name:en": "Warkop Barokah",
        "opening_hours": "Mo-Su 05:00-18:00"
      },
      "geometry": {
        "type": "Point",
        "coordinates": [
          112.737949,
          -7.3027908
        ]
      },
      "id": "node/7132454786"
    },
    {
      "type": "Feature",
      "properties": {
        "@id": "node/7132460490",
        "addr:street": "Jalan Jagir Wonokromo Wetan",
        "amenity": "cafe",
        "cuisine": "friture;donut;coffee_shop",
        "name:en": "Warkop Farid",
        "opening_hours": "Mo-Su 06:00-18:00"
      },
      "geometry": {
        "type": "Point",
        "coordinates": [
          112.7375605,
          -7.3012025
        ]
      },
      "id": "node/7132460490"
    },
    {
      "type": "Feature",
      "properties": {
        "@id": "node/7134705285",
        "addr:street": "Jalan Wonorejo III",
        "amenity": "cafe",
        "cuisine": "friture;coffee_shop",
        "name:en": "Warkop Kusni"
      },
      "geometry": {
        "type": "Point",
        "coordinates": [
          112.7291567,
          -7.2688683
        ]
      },
      "id": "node/7134705285"
    },
    {
      "type": "Feature",
      "properties": {
        "@id": "node/7134746985",
        "addr:street": "Ronggowarsito Tengah",
        "amenity": "cafe",
        "cuisine": "curry;coffee_shop",
        "name:en": "Warkop Ronggowarsito"
      },
      "geometry": {
        "type": "Point",
        "coordinates": [
          112.7283909,
          -7.2797343
        ]
      },
      "id": "node/7134746985"
    },
    {
      "type": "Feature",
      "properties": {
        "@id": "node/7134748285",
        "addr:street": "Jalan Yoso Dipuro",
        "amenity": "cafe",
        "cuisine": "friture;coffee_shop",
        "opening_hours": "24/7"
      },
      "geometry": {
        "type": "Point",
        "coordinates": [
          112.7293442,
          -7.2807687
        ]
      },
      "id": "node/7134748285"
    },
    {
      "type": "Feature",
      "properties": {
        "@id": "node/7134751586",
        "addr:street": "Jalan Kembang Kuning",
        "amenity": "cafe",
        "cuisine": "friture;coffee_shop",
        "name:en": "Warkop Pojok Cak Gondol",
        "opening_hours": "24/7"
      },
      "geometry": {
        "type": "Point",
        "coordinates": [
          112.7296666,
          -7.2825169
        ]
      },
      "id": "node/7134751586"
    },
    {
      "type": "Feature",
      "properties": {
        "@id": "node/7134772985",
        "addr:street": "Jalan Kanwa",
        "amenity": "cafe",
        "cuisine": "friture;coffee_shop",
        "name:en": "Warkop Kanwa",
        "opening_hours": "Mo-Su 06:00-17:00"
      },
      "geometry": {
        "type": "Point",
        "coordinates": [
          112.7303589,
          -7.2847546
        ]
      },
      "id": "node/7134772985"
    },
    {
      "type": "Feature",
      "properties": {
        "@id": "node/7134773085",
        "addr:street": "Jalan Dokter Sutomo",
        "amenity": "cafe",
        "cuisine": "friture;coffee_shop",
        "internet_access": "wlan",
        "name:en": "Warkop Abadi",
        "opening_hours": "Mo-Su 12:00-22:00"
      },
      "geometry": {
        "type": "Point",
        "coordinates": [
          112.7305419,
          -7.2850998
        ]
      },
      "id": "node/7134773085"
    },
    {
      "type": "Feature",
      "properties": {
        "@id": "node/7134773185",
        "addr:street": "Jalan Dr. Wahidin",
        "amenity": "cafe",
        "cuisine": "friture;coffee_shop",
        "name:en": "Warkop Subekti",
        "opening_hours": "Mo-Sa 06:00-17:00",
        "operator": "Subekti"
      },
      "geometry": {
        "type": "Point",
        "coordinates": [
          112.7383139,
          -7.2819918
        ]
      },
      "id": "node/7134773185"
    },
    {
      "type": "Feature",
      "properties": {
        "@id": "node/7134840685",
        "addr:street": "Keputih II",
        "amenity": "cafe",
        "cuisine": "coffee_shop",
        "name:en": "Warkop & Selep Ibu Supini",
        "opening_hours": "Mo-Su 05:00-15:00",
        "operator": "Supini"
      },
      "geometry": {
        "type": "Point",
        "coordinates": [
          112.7998866,
          -7.289129
        ]
      },
      "id": "node/7134840685"
    },
    {
      "type": "Feature",
      "properties": {
        "@id": "node/7134843686",
        "addr:street": "Gang Boto Putih",
        "amenity": "cafe",
        "cuisine": "coffee_shop",
        "internet_access": "wlan",
        "name:en": "Warkop Rizky",
        "opening_hours": "24/7"
      },
      "geometry": {
        "type": "Point",
        "coordinates": [
          112.7646112,
          -7.3158464
        ]
      },
      "id": "node/7134843686"
    },
    {
      "type": "Feature",
      "properties": {
        "@id": "node/7137828085",
        "addr:street": "Jalan Kalijudan",
        "amenity": "cafe",
        "cuisine": "friture;coffee_shop",
        "name:en": "Warkop Pojok Kalijudan",
        "opening_hours": "Mo-Su 05:00-21:00"
      },
      "geometry": {
        "type": "Point",
        "coordinates": [
          112.7735091,
          -7.2636423
        ]
      },
      "id": "node/7137828085"
    },
    {
      "type": "Feature",
      "properties": {
        "@id": "node/7137858885",
        "addr:street": "Kalisari",
        "amenity": "cafe",
        "cuisine": "coffee_shop",
        "name:en": "Warkop Yamuri",
        "opening_hours": "Mo-Su 05:00-12:00"
      },
      "geometry": {
        "type": "Point",
        "coordinates": [
          112.7950862,
          -7.2580589
        ]
      },
      "id": "node/7137858885"
    },
    {
      "type": "Feature",
      "properties": {
        "@id": "node/7138038285",
        "addr:street": "Jalan Gubeng Masjid",
        "amenity": "cafe",
        "cuisine": "friture;coffee_shop",
        "name:en": "Warkop Cak Pur",
        "opening_hours": "Mo-Su 05:00-17:00"
      },
      "geometry": {
        "type": "Point",
        "coordinates": [
          112.7525857,
          -7.2675865
        ]
      },
      "id": "node/7138038285"
    },
    {
      "type": "Feature",
      "properties": {
        "@id": "node/7138147286",
        "addr:street": "Jalan Banda",
        "amenity": "cafe",
        "cuisine": "curry;coffee_shop",
        "name:en": "Warung Giras Pojok PJKA"
      },
      "geometry": {
        "type": "Point",
        "coordinates": [
          112.752083,
          -7.2678465
        ]
      },
      "id": "node/7138147286"
    },
    {
      "type": "Feature",
      "properties": {
        "@id": "node/7144662387",
        "addr:street": "Jalan Songoyudan",
        "amenity": "cafe",
        "cuisine": "friture;coffee_shop",
        "name:en": "Warkop Jempol",
        "opening_hours": "Mo-Sa 05:00-16:00"
      },
      "geometry": {
        "type": "Point",
        "coordinates": [
          112.7417676,
          -7.2351042
        ]
      },
      "id": "node/7144662387"
    },
    {
      "type": "Feature",
      "properties": {
        "@id": "node/7147640985",
        "addr:housenumber": "2a",
        "addr:street": "Jalan Kupang Gunung Timur V Raya",
        "amenity": "cafe",
        "cuisine": "coffee_shop",
        "name:en": "Warkop Biru",
        "opening_hours": "Mo-Su 06:00-22:00"
      },
      "geometry": {
        "type": "Point",
        "coordinates": [
          112.7218013,
          -7.281755
        ]
      },
      "id": "node/7147640985"
    },
    {
      "type": "Feature",
      "properties": {
        "@id": "node/7147775385",
        "addr:street": "Jalan Girilaya",
        "amenity": "cafe",
        "cuisine": "friture;donut;coffee_shop",
        "name:en": "Warkop Mbak Lemu",
        "opening_hours": "24/7"
      },
      "geometry": {
        "type": "Point",
        "coordinates": [
          112.722699,
          -7.2792106
        ]
      },
      "id": "node/7147775385"
    },
    {
      "type": "Feature",
      "properties": {
        "@id": "node/7150269185",
        "addr:street": "Jalan Kaliasin Pompa",
        "amenity": "cafe",
        "cuisine": "coffee_shop",
        "name:en": "Warkop Senpai"
      },
      "geometry": {
        "type": "Point",
        "coordinates": [
          112.7360677,
          -7.2631366
        ]
      },
      "id": "node/7150269185"
    },
    {
      "type": "Feature",
      "properties": {
        "@id": "node/7150269186",
        "addr:street": "Jalan Plemahan Gang VI",
        "amenity": "cafe",
        "cuisine": "friture;coffee_shop",
        "internet_access": "wlan",
        "name:en": "Warkop Gondrong"
      },
      "geometry": {
        "type": "Point",
        "coordinates": [
          112.7349903,
          -7.2629504
        ]
      },
      "id": "node/7150269186"
    },
    {
      "type": "Feature",
      "properties": {
        "@id": "node/7150303385",
        "addr:street": "Jalan Kedung Rukem IV",
        "amenity": "cafe",
        "cuisine": "friture;coffee_shop",
        "name:en": "Warkop Pandawa"
      },
      "geometry": {
        "type": "Point",
        "coordinates": [
          112.7338679,
          -7.2628433
        ]
      },
      "id": "node/7150303385"
    },
    {
      "type": "Feature",
      "properties": {
        "@id": "node/7150340285",
        "addr:street": "Jalan Kedung Rukem IV",
        "amenity": "cafe",
        "cuisine": "friture;cake;donut;coffee_shop",
        "name:en": "Warkop Nuryah",
        "opening_hours": "Mo-Su 06:00-18:00"
      },
      "geometry": {
        "type": "Point",
        "coordinates": [
          112.7316936,
          -7.2623887
        ]
      },
      "id": "node/7150340285"
    },
    {
      "type": "Feature",
      "properties": {
        "@id": "node/7155502185",
        "addr:street": "Jalan Bunguran",
        "amenity": "cafe",
        "cuisine": "coffee_shop",
        "name": "Depot Ko San - Perhimpunan Xiang Qi Pasar Atom",
        "name:id": "Depot Ko San - Perhimpunan Xiang Qi Pasar Atom",
        "opening_hours": "Mo-Su 10:00-16:00",
        "operator": "Ko San"
      },
      "geometry": {
        "type": "Point",
        "coordinates": [
          112.7448489,
          -7.2418702
        ]
      },
      "id": "node/7155502185"
    },
    {
      "type": "Feature",
      "properties": {
        "@id": "node/7157928885",
        "addr:street": "Jalan Kedondong Kidul Gang 3",
        "amenity": "cafe",
        "cuisine": "friture;coffee_shop",
        "name:en": "Warkop Asik",
        "opening_hours": "Mo-Su 10:00-17:00, 19:00-22:00"
      },
      "geometry": {
        "type": "Point",
        "coordinates": [
          112.7360414,
          -7.2713571
        ]
      },
      "id": "node/7157928885"
    },
    {
      "type": "Feature",
      "properties": {
        "@id": "node/7157928985",
        "addr:street": "Jalan Nyamplungan Belokan",
        "amenity": "cafe",
        "cuisine": "coffee_shop",
        "name:en": "Warkop Nyamplungan Balokan",
        "opening_hours": "Mo-Su 06:00-18:00"
      },
      "geometry": {
        "type": "Point",
        "coordinates": [
          112.7450682,
          -7.226793
        ]
      },
      "id": "node/7157928985"
    },
    {
      "type": "Feature",
      "properties": {
        "@id": "node/7157929085",
        "addr:street": "Jalan Nyamplungan",
        "amenity": "cafe",
        "cuisine": "cake;coffee_shop",
        "name:en": "Warkop Sarkam",
        "opening_hours": "24/7",
        "operator": "Amrozi"
      },
      "geometry": {
        "type": "Point",
        "coordinates": [
          112.7439738,
          -7.2316659
        ]
      },
      "id": "node/7157929085"
    },
    {
      "type": "Feature",
      "properties": {
        "@id": "node/7158219585",
        "addr:street": "Jalan Pandegiling",
        "amenity": "cafe",
        "cuisine": "coffee_shop",
        "internet_access": "wlan",
        "name:en": "Warkop Pojok Legendaris",
        "opening_hours": "24/7"
      },
      "geometry": {
        "type": "Point",
        "coordinates": [
          112.7274523,
          -7.2741065
        ]
      },
      "id": "node/7158219585"
    },
    {
      "type": "Feature",
      "properties": {
        "@id": "node/7158221986",
        "addr:street": "Jalan Pandegiling",
        "amenity": "cafe",
        "cuisine": "coffee_shop",
        "name:en": "Warkop Pancar",
        "opening_hours": "24/7"
      },
      "geometry": {
        "type": "Point",
        "coordinates": [
          112.7291202,
          -7.2744646
        ]
      },
      "id": "node/7158221986"
    },
    {
      "type": "Feature",
      "properties": {
        "@id": "node/7158258285",
        "addr:street": "Jalan Tunjungan",
        "amenity": "cafe",
        "cuisine": "coffee_shop",
        "name:en": "Warkop Simpang",
        "opening_hours": "Mo-Sa 08:00-16:00"
      },
      "geometry": {
        "type": "Point",
        "coordinates": [
          112.7408814,
          -7.2624443
        ]
      },
      "id": "node/7158258285"
    },
    {
      "type": "Feature",
      "properties": {
        "@id": "node/7158260585",
        "addr:street": "Jalan Blauran",
        "amenity": "cafe",
        "cuisine": "coffee_shop",
        "name:en": "Warkop Pojok Blauran",
        "opening_hours": "Mo-Su 09:00-18:00"
      },
      "geometry": {
        "type": "Point",
        "coordinates": [
          112.733109,
          -7.2582004
        ]
      },
      "id": "node/7158260585"
    },
    {
      "type": "Feature",
      "properties": {
        "@id": "node/7174515385",
        "addr:housenumber": "2",
        "addr:street": "Jalan Veteran",
        "amenity": "cafe",
        "cuisine": "coffee_shop",
        "name:en": "Kafeku",
        "opening_hours": "Mo-Sa 10:00-16:00"
      },
      "geometry": {
        "type": "Point",
        "coordinates": [
          112.7382911,
          -7.2427287
        ]
      },
      "id": "node/7174515385"
    },
    {
      "type": "Feature",
      "properties": {
        "@id": "node/7252030485",
        "addr:street": "Jalan Margorukun II",
        "amenity": "cafe",
        "cuisine": "coffee_shop",
        "opening_hours": "Mo-Su 05:00-18:00",
        "operator": "Cak Di"
      },
      "geometry": {
        "type": "Point",
        "coordinates": [
          112.7275728,
          -7.2508696
        ]
      },
      "id": "node/7252030485"
    },
    {
      "type": "Feature",
      "properties": {
        "@id": "node/7256792485",
        "addr:street": "Jalan Sukodono V",
        "amenity": "cafe",
        "cuisine": "coffee_shop",
        "name:en": "Warkop Amari",
        "opening_hours": "Mo-Su 06:00-18:00",
        "operator": "Amari"
      },
      "geometry": {
        "type": "Point",
        "coordinates": [
          112.7410025,
          -7.2258327
        ]
      },
      "id": "node/7256792485"
    },
    {
      "type": "Feature",
      "properties": {
        "@id": "node/7256994887",
        "addr:housenumber": "30",
        "addr:street": "Jalan Sidoyoso Wetan",
        "amenity": "cafe",
        "cuisine": "coffee_shop",
        "internet_access": "wlan",
        "name:en": "Warkop Mbah Holil"
      },
      "geometry": {
        "type": "Point",
        "coordinates": [
          112.7616577,
          -7.2395382
        ]
      },
      "id": "node/7256994887"
    },
    {
      "type": "Feature",
      "properties": {
        "@id": "node/7275860085",
        "addr:street": "Jalan Asem Raya",
        "amenity": "cafe",
        "cuisine": "indonesian;coffee_shop",
        "name:en": "Warkop Bu Umi",
        "opening_hours": "Mo-Su 05:00-18:00",
        "operator": "Bu Umi"
      },
      "geometry": {
        "type": "Point",
        "coordinates": [
          112.7154832,
          -7.2522846
        ]
      },
      "id": "node/7275860085"
    },
    {
      "type": "Feature",
      "properties": {
        "@id": "node/7286990885",
        "addr:street": "Jalan Tanjungsari IV",
        "amenity": "cafe",
        "name:en": "Warkop Cita Rasa",
        "opening_hours": "Mo-Su 06:00-18:00"
      },
      "geometry": {
        "type": "Point",
        "coordinates": [
          112.6928389,
          -7.2620044
        ]
      },
      "id": "node/7286990885"
    },
    {
      "type": "Feature",
      "properties": {
        "@id": "node/7286991985",
        "addr:street": "Jalan Tanjungsari IV",
        "amenity": "cafe",
        "name:en": "Warkop Cita Rasa"
      },
      "geometry": {
        "type": "Point",
        "coordinates": [
          112.693116,
          -7.262042
        ]
      },
      "id": "node/7286991985"
    },
    {
      "type": "Feature",
      "properties": {
        "@id": "node/7330332685",
        "addr:street": "Jalan Mleto Gang Pasar",
        "amenity": "cafe",
        "name:en": "Warkop Pak Yono",
        "opening_hours": "Mo-Su 05:00-17:00"
      },
      "geometry": {
        "type": "Point",
        "coordinates": [
          112.7704322,
          -7.2820524
        ]
      },
      "id": "node/7330332685"
    },
    {
      "type": "Feature",
      "properties": {
        "@id": "node/7797720685",
        "addr:street": "Jalan Raya Benowo",
        "amenity": "cafe",
        "cuisine": "coffee_shop",
        "name:en": "Warkop Cak Syaiful",
        "opening_hours": "Mo-Su 05:00-10:00",
        "operator": "Syaiful"
      },
      "geometry": {
        "type": "Point",
        "coordinates": [
          112.6109767,
          -7.234353
        ]
      },
      "id": "node/7797720685"
    },
    {
      "type": "Feature",
      "properties": {
        "@id": "node/7797730885",
        "addr:street": "Jalan Singapur",
        "amenity": "cafe",
        "name:en": "Warkop Murni",
        "opening_hours": "Mo-Su 07:00-22:00"
      },
      "geometry": {
        "type": "Point",
        "coordinates": [
          112.6100446,
          -7.2307017
        ]
      },
      "id": "node/7797730885"
    },
    {
      "type": "Feature",
      "properties": {
        "@id": "node/7824596487",
        "addr:street": "Jalan Jojoran I",
        "amenity": "cafe",
        "cuisine": "tea;friture;donut;coffee_shop",
        "name:en": "Warkop Pak Sapik",
        "opening_hours": "Mo-Su 05:00-21:00"
      },
      "geometry": {
        "type": "Point",
        "coordinates": [
          112.766395,
          -7.2728312
        ]
      },
      "id": "node/7824596487"
    },
    {
      "type": "Feature",
      "properties": {
        "@id": "node/7857864985",
        "addr:street": "Jalan Bulak Rukem Timur 2",
        "amenity": "cafe",
        "cuisine": "coffee_shop",
        "name:en": "Warkop 5758 Maju Mapan",
        "opening_hours": "Mo-Su 05:00-18:00"
      },
      "geometry": {
        "type": "Point",
        "coordinates": [
          112.7734491,
          -7.2333855
        ]
      },
      "id": "node/7857864985"
    },
    {
      "type": "Feature",
      "properties": {
        "@id": "node/7874257285",
        "addr:housenumber": "47",
        "addr:street": "Jalan Kebalen Barat",
        "amenity": "cafe",
        "cuisine": "friture;donut;coffee_shop",
        "name:en": "Warkop Tin",
        "opening_hours": "Mo-Su 06:00-18:00"
      },
      "geometry": {
        "type": "Point",
        "coordinates": [
          112.7347381,
          -7.2286159
        ]
      },
      "id": "node/7874257285"
    },
    {
      "type": "Feature",
      "properties": {
        "@id": "node/7948007285",
        "addr:street": "Jalan Raden Wijaya",
        "amenity": "cafe",
        "name:en": "Warkop 83 (Pasar Malam Kodam)",
        "opening_hours": "Mo-Su 17:00-23:00"
      },
      "geometry": {
        "type": "Point",
        "coordinates": [
          112.7246988,
          -7.2995786
        ]
      },
      "id": "node/7948007285"
    },
    {
      "type": "Feature",
      "properties": {
        "@id": "node/7972072185",
        "addr:housenumber": "41",
        "addr:street": "Jalan Kedung Baruk",
        "amenity": "cafe",
        "cuisine": "breakfast;coffee_shop;donut;friture",
        "diet:vegetarian": "yes",
        "name:en": "Warkop Pak Cobra",
        "opening_hours": "Mo-Su 06:00-18:00",
        "operator": "Pak Cobra"
      },
      "geometry": {
        "type": "Point",
        "coordinates": [
          112.7758786,
          -7.310712
        ]
      },
      "id": "node/7972072185"
    },
    {
      "type": "Feature",
      "properties": {
        "@id": "node/7975327585",
        "addr:street": "Jalan Sombo",
        "amenity": "cafe",
        "name:en": "Warkop Cak Di Rusun Sumbo",
        "opening_hours": "Mo-Su 05:00-21:00"
      },
      "geometry": {
        "type": "Point",
        "coordinates": [
          112.7472056,
          -7.2340049
        ]
      },
      "id": "node/7975327585"
    },
    {
      "type": "Feature",
      "properties": {
        "@id": "node/7983244585",
        "addr:street": "Jalan Dupak Bangunsari Tengah",
        "amenity": "cafe",
        "cuisine": "cake;coffee_shop;donut;friture",
        "name:en": "Warkop Sakrun",
        "opening_hours": "24/7"
      },
      "geometry": {
        "type": "Point",
        "coordinates": [
          112.7186423,
          -7.2393056
        ]
      },
      "id": "node/7983244585"
    },
    {
      "type": "Feature",
      "properties": {
        "@id": "node/7987809885",
        "addr:street": "Jalan Keputran",
        "amenity": "cafe",
        "cuisine": "cake;coffee_shop;friture",
        "name:en": "Warkop Agus",
        "opening_hours": "Mo-Su 14:00-00:00",
        "operator": "Agus"
      },
      "geometry": {
        "type": "Point",
        "coordinates": [
          112.7434093,
          -7.2740022
        ]
      },
      "id": "node/7987809885"
    },
    {
      "type": "Feature",
      "properties": {
        "@id": "node/7991989466",
        "addr:city": "Surabaya",
        "addr:housenumber": "45",
        "addr:postcode": "60118",
        "addr:street": "Jalan Nginden Semolo",
        "amenity": "cafe",
        "cuisine": "coffee_shop;sandwich;chicken;asian",
        "description": "Basecamp17 adalah tempat berkumpul, tempat nongkrong yang asik. Gorengan akan menjadi teman, simbol kebersamaan, meriah, asik dinikmati bersama teman.",
        "image": "https://i2.wp.com/cldup.com/QDK2tYpXUE.jpg?w=1080&ssl=1",
        "internet_access": "wlan",
        "internet_access:fee": "customers",
        "name": "Angkringan & Cafe Basecamp 17",
        "opening_hours": "Mo-Sa 10:00-21:00",
        "reservation": "required"
      },
      "geometry": {
        "type": "Point",
        "coordinates": [
          112.7680066,
          -7.299597
        ]
      },
      "id": "node/7991989466"
    },
    {
      "type": "Feature",
      "properties": {
        "@id": "node/7996249986",
        "addr:street": "Jalan Dupak Rukun Pasar Loak",
        "amenity": "cafe",
        "cuisine": "cake;chicken;coffee_shop;curry;friture;local",
        "name:en": "Warung Pojok Maimona",
        "opening_hours": "Mo-Su 06:00-15:00"
      },
      "geometry": {
        "type": "Point",
        "coordinates": [
          112.7135272,
          -7.2470734
        ]
      },
      "id": "node/7996249986"
    },
    {
      "type": "Feature",
      "properties": {
        "@id": "node/8001751587",
        "addr:street": "Jalan Sumur Welut",
        "amenity": "cafe",
        "cuisine": "coffee_shop;donut;friture",
        "name:en": "Warkop Alin Gondrong",
        "opening_hours": "Mo-Su 06:00-18:00"
      },
      "geometry": {
        "type": "Point",
        "coordinates": [
          112.6736755,
          -7.3261931
        ]
      },
      "id": "node/8001751587"
    },
    {
      "type": "Feature",
      "properties": {
        "@id": "node/8008155085",
        "addr:street": "Jalan Ngagel Rejo Utara VI",
        "amenity": "cafe",
        "name:en": "Warkop Subur",
        "opening_hours": "Mo-Su 05:00-16:00"
      },
      "geometry": {
        "type": "Point",
        "coordinates": [
          112.7461734,
          -7.2944064
        ]
      },
      "id": "node/8008155085"
    },
    {
      "type": "Feature",
      "properties": {
        "@id": "node/8436709717",
        "addr:street": "Jalan Gili VI",
        "amenity": "cafe",
        "cuisine": "asian;breakfast;cake;chicken;coffee_shop;friture;local",
        "name:en": "Warkop Mbak Jum",
        "opening_hours": "Mo-Sa 06:00-16:00"
      },
      "geometry": {
        "type": "Point",
        "coordinates": [
          112.7422693,
          -7.2348749
        ]
      },
      "id": "node/8436709717"
    },
    {
      "type": "Feature",
      "properties": {
        "@id": "node/8495734017",
        "addr:street": "Jalan Songoyudan",
        "amenity": "cafe",
        "name:en": "Warkop Pak To",
        "opening_hours": "Mo-Sa 05:00-16:00"
      },
      "geometry": {
        "type": "Point",
        "coordinates": [
          112.7418284,
          -7.2351188
        ]
      },
      "id": "node/8495734017"
    },
    {
      "type": "Feature",
      "properties": {
        "@id": "node/8502106017",
        "addr:street": "Jalan Gresik",
        "amenity": "cafe",
        "name:en": "Warkop Gadex",
        "opening_hours": "Mo-Su 06:00-11:00"
      },
      "geometry": {
        "type": "Point",
        "coordinates": [
          112.7264067,
          -7.2333039
        ]
      },
      "id": "node/8502106017"
    },
    {
      "type": "Feature",
      "properties": {
        "@id": "node/8508756917",
        "addr:street": "Jalan Dupak Magersari III",
        "amenity": "cafe",
        "name:en": "Warkop Pak Ponirin",
        "opening_hours": "Mo-Su 06:00-20:00"
      },
      "geometry": {
        "type": "Point",
        "coordinates": [
          112.7323458,
          -7.2441565
        ]
      },
      "id": "node/8508756917"
    },
    {
      "type": "Feature",
      "properties": {
        "@id": "node/8555556719",
        "addr:housenumber": "77",
        "addr:street": "Jalan Sidorame",
        "amenity": "cafe",
        "name:en": "Abu Mahri (Kopi Kampoeng Arab)",
        "name:id": "Abu Mahri",
        "opening_hours": "Mo-Su 10:00-17:00"
      },
      "geometry": {
        "type": "Point",
        "coordinates": [
          112.7464312,
          -7.2266303
        ]
      },
      "id": "node/8555556719"
    },
    {
      "type": "Feature",
      "properties": {
        "@id": "node/8568915217",
        "addr:street": "Jalan Semarang",
        "amenity": "cafe",
        "cuisine": "cake;coffee_shop;friture",
        "name:en": "Warkop Bagio",
        "name:id": "Warkop Bagio",
        "opening_hours": "Mo-Su 18:00-05:00"
      },
      "geometry": {
        "type": "Point",
        "coordinates": [
          112.7288868,
          -7.2526233
        ]
      },
      "id": "node/8568915217"
    },
    {
      "type": "Feature",
      "properties": {
        "@id": "node/9012973317",
        "addr:street": "Jalan Kenjeran IV",
        "amenity": "cafe",
        "cuisine": "cake;coffee_shop",
        "name:en": "Warkop Palapa",
        "opening_hours": "Mo-Su 05:00-17:00"
      },
      "geometry": {
        "type": "Point",
        "coordinates": [
          112.7560071,
          -7.2413053
        ]
      },
      "id": "node/9012973317"
    },
    {
      "type": "Feature",
      "properties": {
        "@id": "node/9152502969",
        "addr:city": "Surabaya",
        "addr:street": "Gunung Anyar",
        "amenity": "cafe",
        "cuisine": "coffee_shop",
        "internet_access": "wlan",
        "internet_access:fee": "no",
        "name": "GIRAS BERSATU REVO 99",
        "opening_hours": "Mo-Su 09:00-21:00",
        "outdoor_seating": "yes"
      },
      "geometry": {
        "type": "Point",
        "coordinates": [
          112.7851322,
          -7.3396385
        ]
      },
      "id": "node/9152502969"
    },
    {
      "type": "Feature",
      "properties": {
        "@id": "node/9218740417",
        "addr:street": "Jalan Rusun Dupak Bangunrejo II",
        "amenity": "cafe",
        "cuisine": "coffee_shop;friture",
        "internet_access": "wlan",
        "name:en": "Warkop Buk Niroh",
        "opening_hours": "Mo-Su 05:00-13:00"
      },
      "geometry": {
        "type": "Point",
        "coordinates": [
          112.7161461,
          -7.2399825
        ]
      },
      "id": "node/9218740417"
    },
    {
      "type": "Feature",
      "properties": {
        "@id": "node/9599404615",
        "amenity": "cafe",
        "name": "Mexicola"
      },
      "geometry": {
        "type": "Point",
        "coordinates": [
          112.8045749,
          -7.2801788
        ]
      },
      "id": "node/9599404615"
    },
    {
      "type": "Feature",
      "properties": {
        "@id": "node/10129447477",
        "addr:city": "Surabaya",
        "addr:postcode": "60217",
        "addr:street": "Jalan Niagara Gapura",
        "amenity": "cafe",
        "cuisine": "chinese;japanese;chicken;asian;korean;international",
        "internet_access": "wlan",
        "internet_access:fee": "customers",
        "name": "1UP Kitchen",
        "opening_hours": "Mo-Su 10:00-22:00",
        "outdoor_seating": "yes",
        "phone": "+6281386878801"
      },
      "geometry": {
        "type": "Point",
        "coordinates": [
          112.6556973,
          -7.2863144
        ]
      },
      "id": "node/10129447477"
    },
    {
      "type": "Feature",
      "properties": {
        "@id": "node/10139441848",
        "amenity": "cafe",
        "name": "Tanamera Coffee & Roastery Trunojoyo"
      },
      "geometry": {
        "type": "Point",
        "coordinates": [
          112.7350704,
          -7.2846363
        ]
      },
      "id": "node/10139441848"
    },
    {
      "type": "Feature",
      "properties": {
        "@id": "node/10142198066",
        "amenity": "cafe",
        "cuisine": "coffee_shop",
        "name": "Toko Kopi Padma"
      },
      "geometry": {
        "type": "Point",
        "coordinates": [
          112.7383317,
          -7.2587211
        ]
      },
      "id": "node/10142198066"
    },
    {
      "type": "Feature",
      "properties": {
        "@id": "node/10554645106",
        "addr:city": "Surabaya",
        "addr:housenumber": "PM Home Pro Ground Floor",
        "addr:postcode": "60213",
        "amenity": "cafe",
        "cuisine": "western;coffee_shop;restaurant",
        "dine_in": "yes",
        "internet_access": "yes",
        "internet_access:fee": "customers",
        "name": "Toby's Estate La Viz",
        "outdoor_seating": "yes",
        "phone": "+6281259546675",
        "reservation": "yes",
        "takeaway": "yes",
        "wheelchair": "yes"
      },
      "geometry": {
        "type": "Point",
        "coordinates": [
          112.6738712,
          -7.289331
        ]
      },
      "id": "node/10554645106"
    },
    {
      "type": "Feature",
      "properties": {
        "@id": "node/10774732097",
        "amenity": "cafe",
        "name": "Loko"
      },
      "geometry": {
        "type": "Point",
        "coordinates": [
          112.7524654,
          -7.2655817
        ]
      },
      "id": "node/10774732097"
    },
    {
      "type": "Feature",
      "properties": {
        "@id": "node/11033768343",
        "addr:city": "Surabaya",
        "air_conditioning": "yes",
        "amenity": "cafe",
        "bar": "no",
        "level": "0",
        "name": "Starbucks",
        "smoking": "no",
        "takeaway": "yes"
      },
      "geometry": {
        "type": "Point",
        "coordinates": [
          112.7198711,
          -7.2925713
        ]
      },
      "id": "node/11033768343"
    },
    {
      "type": "Feature",
      "properties": {
        "@id": "node/11348321169",
        "amenity": "cafe",
        "name": "Good Press and Co"
      },
      "geometry": {
        "type": "Point",
        "coordinates": [
          112.7490196,
          -7.2668495
        ]
      },
      "id": "node/11348321169"
    },
    {
      "type": "Feature",
      "properties": {
        "@id": "node/11609752540",
        "addr:city": "Surabaya",
        "addr:housenumber": "69",
        "addr:postcode": "60237",
        "addr:street": "Jalan Raya Jemursari",
        "amenity": "cafe",
        "cuisine": "coffee_shop;burger",
        "name": "Salt & Sugar Cafe and Bistro",
        "opening_hours": "Mo-Su 10:00-21:15",
        "phone": "+62 852 3121 6943",
        "website": "https://salt-and-sugar-cafe-and-bistro.business.site/"
      },
      "geometry": {
        "type": "Point",
        "coordinates": [
          112.7421007,
          -7.3226777
        ]
      },
      "id": "node/11609752540"
    },
    {
      "type": "Feature",
      "properties": {
        "@id": "node/11733317569",
        "addr:street": "Jalan Rusun Dupak Bangunrejo II",
        "amenity": "cafe",
        "cuisine": "cake;donut;friture",
        "internet_access": "wlan",
        "name": "Warkop Buk Niroh",
        "opening_hours": "Mo-Su 05:00-13:00"
      },
      "geometry": {
        "type": "Point",
        "coordinates": [
          112.7161378,
          -7.2399643
        ]
      },
      "id": "node/11733317569"
    },
    {
      "type": "Feature",
      "properties": {
        "@id": "node/11733317572",
        "addr:housenumber": "3",
        "addr:street": "Jalan Krembangan Barat",
        "amenity": "cafe",
        "name": "Warkop",
        "name:id": "Warkop Irul",
        "opening_hours": "Mo-Sa 06:00-15:00"
      },
      "geometry": {
        "type": "Point",
        "coordinates": [
          112.7337958,
          -7.2409355
        ]
      },
      "id": "node/11733317572"
    },
    {
      "type": "Feature",
      "properties": {
        "@id": "node/11733317673",
        "addr:housenumber": "23",
        "addr:street": "Jalan Muteran III",
        "amenity": "cafe",
        "name": "Warkop Sur"
      },
      "geometry": {
        "type": "Point",
        "coordinates": [
          112.7362223,
          -7.2281301
        ]
      },
      "id": "node/11733317673"
    },
    {
      "type": "Feature",
      "properties": {
        "@id": "node/11733317680",
        "addr:housenumber": "4",
        "addr:street": "Ketumbar",
        "amenity": "cafe",
        "name": "Warkop Ambon Mama Ilona"
      },
      "geometry": {
        "type": "Point",
        "coordinates": [
          112.7328035,
          -7.2375225
        ]
      },
      "id": "node/11733317680"
    },
    {
      "type": "Feature",
      "properties": {
        "@id": "node/11733317775",
        "addr:street": "Jalan Indrapura Pasar",
        "amenity": "cafe",
        "name": "Warkop Magupa"
      },
      "geometry": {
        "type": "Point",
        "coordinates": [
          112.7317029,
          -7.2307317
        ]
      },
      "id": "node/11733317775"
    },
    {
      "type": "Feature",
      "properties": {
        "@id": "node/11733317973",
        "addr:street": "Jalan Krembangan Besar",
        "amenity": "cafe",
        "name": "Warkop Pojok Krembangan"
      },
      "geometry": {
        "type": "Point",
        "coordinates": [
          112.7331978,
          -7.2349903
        ]
      },
      "id": "node/11733317973"
    },
    {
      "type": "Feature",
      "properties": {
        "@id": "node/11733317984",
        "addr:street": "Jalan Kebalen Wetan III",
        "amenity": "cafe",
        "name": "Warkop Kebalen Wetan 3"
      },
      "geometry": {
        "type": "Point",
        "coordinates": [
          112.7350109,
          -7.2276416
        ]
      },
      "id": "node/11733317984"
    },
    {
      "type": "Feature",
      "properties": {
        "@id": "node/11780266827",
        "amenity": "cafe",
        "name": "kafe"
      },
      "geometry": {
        "type": "Point",
        "coordinates": [
          112.7535738,
          -7.2490839
        ]
      },
      "id": "node/11780266827"
    },
    {
      "type": "Feature",
      "properties": {
        "@id": "node/11984937195",
        "amenity": "cafe",
        "name": "Ultra Coffee"
      },
      "geometry": {
        "type": "Point",
        "coordinates": [
          112.729668,
          -7.2916881
        ]
      },
      "id": "node/11984937195"
    },
    {
      "type": "Feature",
      "properties": {
        "@id": "node/12012456804",
        "amenity": "cafe",
        "name": "Warkop DankDut"
      },
      "geometry": {
        "type": "Point",
        "coordinates": [
          112.7443616,
          -7.2690545
        ]
      },
      "id": "node/12012456804"
    },
    {
      "type": "Feature",
      "properties": {
        "@id": "node/12211251378",
        "addr:city": "Surabaya",
        "addr:district": "Sukolilo",
        "addr:housenumber": "35-37",
        "addr:postcode": "60118",
        "addr:province": "Jawa Timur",
        "addr:street": "Jalan Raya Nginden",
        "addr:subdistrict": "Nginden Jangkungan",
        "amenity": "cafe",
        "cuisine": "coffee_shop;tea;noodle;regional;soup;pasta;chicken;kebab",
        "internet_access": "yes",
        "internet_access:fee": "no",
        "name": "Warkop Budal Mulih",
        "opening_hours": "24/7",
        "outdoor_seating": "yes",
        "website": "https://www.instagram.com/warkop.budalmulih"
      },
      "geometry": {
        "type": "Point",
        "coordinates": [
          112.7622739,
          -7.3016779
        ]
      },
      "id": "node/12211251378"
    },
    {
      "type": "Feature",
      "properties": {
        "@id": "node/12215189327",
        "amenity": "cafe",
        "cuisine": "coffee_shop",
        "name": "Bubu Oriental"
      },
      "geometry": {
        "type": "Point",
        "coordinates": [
          112.7376583,
          -7.2575058
        ]
      },
      "id": "node/12215189327"
    },
    {
      "type": "Feature",
      "properties": {
        "@id": "node/12215189328",
        "amenity": "cafe",
        "cuisine": "coffee_shop",
        "name": "Phermitage"
      },
      "geometry": {
        "type": "Point",
        "coordinates": [
          112.737729,
          -7.2576123
        ]
      },
      "id": "node/12215189328"
    },
    {
      "type": "Feature",
      "properties": {
        "@id": "node/12215189330",
        "amenity": "cafe",
        "name": "Ludic"
      },
      "geometry": {
        "type": "Point",
        "coordinates": [
          112.7377921,
          -7.2577201
        ]
      },
      "id": "node/12215189330"
    },
    {
      "type": "Feature",
      "properties": {
        "@id": "node/12215189331",
        "amenity": "cafe",
        "name": "Thirty Three"
      },
      "geometry": {
        "type": "Point",
        "coordinates": [
          112.737865,
          -7.2579232
        ]
      },
      "id": "node/12215189331"
    },
    {
      "type": "Feature",
      "properties": {
        "@id": "node/12215189341",
        "amenity": "cafe",
        "name": "Hoho Coffee"
      },
      "geometry": {
        "type": "Point",
        "coordinates": [
          112.7387904,
          -7.2595504
        ]
      },
      "id": "node/12215189341"
    },
    {
      "type": "Feature",
      "properties": {
        "@id": "node/12215189342",
        "amenity": "cafe",
        "name": "Zerøgram"
      },
      "geometry": {
        "type": "Point",
        "coordinates": [
          112.7388566,
          -7.2596488
        ]
      },
      "id": "node/12215189342"
    },
    {
      "type": "Feature",
      "properties": {
        "@id": "node/12215189345",
        "amenity": "cafe",
        "name": "Piring Seng"
      },
      "geometry": {
        "type": "Point",
        "coordinates": [
          112.7390788,
          -7.2601788
        ]
      },
      "id": "node/12215189345"
    },
    {
      "type": "Feature",
      "properties": {
        "@id": "node/12215189353",
        "amenity": "cafe",
        "name": "Paper Cup"
      },
      "geometry": {
        "type": "Point",
        "coordinates": [
          112.7395192,
          -7.2607207
        ]
      },
      "id": "node/12215189353"
    },
    {
      "type": "Feature",
      "properties": {
        "@id": "node/12215189357",
        "amenity": "cafe",
        "brand": "TOMORO Coffee",
        "brand:wikidata": "Q126326801",
        "cuisine": "coffee_shop",
        "name": "TOMORO Coffee",
        "takeaway": "yes"
      },
      "geometry": {
        "type": "Point",
        "coordinates": [
          112.7382243,
          -7.2579405
        ]
      },
      "id": "node/12215189357"
    },
    {
      "type": "Feature",
      "properties": {
        "@id": "node/12284575449",
        "amenity": "cafe",
        "name": "Warkop Bening"
      },
      "geometry": {
        "type": "Point",
        "coordinates": [
          112.7316495,
          -7.275014
        ]
      },
      "id": "node/12284575449"
    },
    {
      "type": "Feature",
      "properties": {
        "@id": "node/12721862892",
        "addr:street": "Jalan Doktor Insinyur Haji Soekarno",
        "amenity": "cafe",
        "name": "BM Coffee"
      },
      "geometry": {
        "type": "Point",
        "coordinates": [
          112.7808962,
          -7.3264049
        ]
      },
      "id": "node/12721862892"
    },
    {
      "type": "Feature",
      "properties": {
        "@id": "node/12721862893",
        "addr:street": "Jalan Doktor Insinyur Haji Soekarno",
        "amenity": "cafe",
        "name": "Jokopi"
      },
      "geometry": {
        "type": "Point",
        "coordinates": [
          112.7808423,
          -7.3260034
        ]
      },
      "id": "node/12721862893"
    },
    {
      "type": "Feature",
      "properties": {
        "@id": "node/12726094808",
        "alt_name": "Indomaret Point",
        "amenity": "cafe",
        "brand": "Point Coffee",
        "brand:wikidata": "Q124651558",
        "cuisine": "coffee_shop",
        "name": "Point Coffee",
        "takeaway": "yes"
      },
      "geometry": {
        "type": "Point",
        "coordinates": [
          112.6838177,
          -7.3113686
        ]
      },
      "id": "node/12726094808"
    },
    {
      "type": "Feature",
      "properties": {
        "@id": "node/12726094819",
        "amenity": "cafe",
        "cuisine": "coffee_shop",
        "name": "Excelso"
      },
      "geometry": {
        "type": "Point",
        "coordinates": [
          112.6822989,
          -7.3110457
        ]
      },
      "id": "node/12726094819"
    },
    {
      "type": "Feature",
      "properties": {
        "@id": "node/12726094820",
        "amenity": "cafe",
        "cuisine": "coffee_shop",
        "name": "Ada Apa Dengan Kopi?"
      },
      "geometry": {
        "type": "Point",
        "coordinates": [
          112.6813991,
          -7.310916
        ]
      },
      "id": "node/12726094820"
    },
    {
      "type": "Feature",
      "properties": {
        "@id": "node/12726094846",
        "amenity": "cafe",
        "brand": "Starbucks",
        "brand:wikidata": "Q37158",
        "cuisine": "coffee_shop",
        "name": "Starbucks",
        "official_name": "Starbucks Coffee",
        "takeaway": "yes"
      },
      "geometry": {
        "type": "Point",
        "coordinates": [
          112.6793363,
          -7.3104757
        ]
      },
      "id": "node/12726094846"
    },
    {
      "type": "Feature",
      "properties": {
        "@id": "node/12726094849",
        "amenity": "cafe",
        "brand": "Kopi Kenangan",
        "brand:wikidata": "Q97221992",
        "cuisine": "coffee_shop",
        "diet:halal": "only",
        "name": "Kopi Kenangan",
        "takeaway": "yes"
      },
      "geometry": {
        "type": "Point",
        "coordinates": [
          112.6789735,
          -7.3110812
        ]
      },
      "id": "node/12726094849"
    }
  ]
}